"","InstitutionCode","CollectionCode","CatalogNumber","IndividualCount","ScientificName","Family","PreparationType","Tissues","Latitude","Longitude","CoordinateUncertaintyInMeters","HorizontalDatum","Country","StateProvince","County","Island","IslandGroup","Locality","VerbatimElevation","VerbatimDepth","YearCollected","MonthCollected","DayCollected","Collector","GeorefMethod","LatLongComments","BasisOfRecord","Remarks","DateLastModified","CI","decade","combo","number_individuals_requested"
"104","TU","Fish",31000,10,"Carpiodes velifer","Catostomidae",NA,NA,30.77861,-89.82972,NA,NA,"United States of America","Louisiana","Washington",NA,NA,"Pearl River just above mouth of Coburn Creek, 1.5 miles E of Hwy. 7 in Bogalusa (left bank).",NA,NA,1963,12,12,"R.D. Suttkus & G.E. Gunning",NA,NA,"PreservedSpecimen","",NA,"control","1954-1963","control_1954-1963",4
"10","TU","Fish",31554,72,"Carpiodes velifer","Catostomidae",NA,NA,30.77861,-89.82972,NA,NA,"United States of America","Louisiana","Washington",NA,NA,"Pearl River just above mouth of Coburn Creek; 1.5 mi. E of Hwy. 7 in Bogalusa.",NA,NA,1963,6,13,"G.E. Gunning & J. Shireman",NA,NA,"PreservedSpecimen","",NA,"control","1954-1963","control_1954-1963",4
"90","TU","Fish",31117,9,"Carpiodes velifer","Catostomidae",NA,NA,30.77861,-89.82972,NA,NA,"United States of America","Louisiana","Washington",NA,NA,"Pearl River just above mouth of Coburn Creek, 1.5 mi. E of Hwy. 7 in Bogalusa.",NA,NA,1963,4,27,"R.D. Suttkus & G.E. Gunning",NA,NA,"PreservedSpecimen","",NA,"control","1954-1963","control_1954-1963",4
"152","TU","Fish",55943,68,"Carpiodes velifer","Catostomidae",NA,NA,30.76805,-89.83083,NA,NA,"United States of America","Louisiana","Washington",NA,NA,"Pearl River between mouth of Coburn & Bogalusa Creeks; 1.5 mi. E of Bogalusa - Fish Stat. #2.",NA,NA,1969,1,9,"R.D. Suttkus & G.E. Gunning",NA,NA,"PreservedSpecimen","",NA,"control","1964-1973","control_1964-1973",4
"3","TU","Fish",79477,16,"Carpiodes velifer","Catostomidae",NA,NA,30.77861,-89.82972,NA,NA,"United States of America","Louisiana","Washington",NA,NA,"Pearl River just above mouth of Coburn Creek - Fish Stat. #1.",NA,NA,1972,7,12,"B.A. Thompson & Cashner",NA,NA,"PreservedSpecimen","",NA,"control","1964-1973","control_1964-1973",4
"149","TU","Fish",53844,13,"Carpiodes velifer","Catostomidae",NA,NA,30.77861,-89.82972,NA,NA,"United States of America","Louisiana","Washington",NA,NA,"Pearl River just above mouth of Coburn Creek; 1.5 mi. E of Bogalusa - Fish Stat. #1.",NA,NA,1968,10,23,"R.D. Suttkus & G.E. Gunning",NA,NA,"PreservedSpecimen","",NA,"control","1964-1973","control_1964-1973",4
"15","TU","Fish",47043,38,"Carpiodes velifer","Catostomidae",NA,NA,30.77861,-89.82972,NA,NA,"United States of America","Louisiana","Washington",NA,NA,"Pearl River just above mouth of Coburn Creek; 1.5 mi. E of Bogalusa - Fish Stat. #1",NA,NA,1967,7,13,"G.E. Gunning & G.H. Clemmer",NA,NA,"PreservedSpecimen","",NA,"control","1964-1973","control_1964-1973",4
"224","TU","Fish",132511,8,"Carpiodes velifer","Catostomidae",NA,NA,30.76805,-89.83083,NA,NA,"United States of America","Louisiana","Washington",NA,NA,"Pearl River along right bank between Coburn & Bogalusa Creeks.",NA,NA,1983,10,6,"R.D. Suttkus & G.E. Gunning",NA,NA,"PreservedSpecimen","",NA,"control","1974-1983","control_1974-1983",4
"219","TU","Fish",128025,27,"Carpiodes velifer","Catostomidae",NA,NA,30.76805,-89.83083,NA,NA,"United States of America","Louisiana","Washington",NA,NA,"Pearl River along right bank between mouth of Coburn & Bogalusa Creeks.",NA,NA,1982,10,21,"R.D. Suttkus & S.O. Rohmann",NA,NA,"PreservedSpecimen","",NA,"control","1974-1983","control_1974-1983",4
"209","TU","Fish",123304,35,"Carpiodes velifer","Catostomidae",NA,NA,30.76805,-89.83083,NA,NA,"United States of America","Louisiana","Washington",NA,NA,"Pearl River along right bank between Coburn & Bogalusa Creeks.",NA,NA,1981,10,22,"R.D. Suttkus & S.O. Rohmann",NA,NA,"PreservedSpecimen","",NA,"control","1974-1983","control_1974-1983",4
"215","TU","Fish",126106,27,"Carpiodes velifer","Catostomidae",NA,NA,30.76805,-89.83083,NA,NA,"United States of America","Louisiana","Washington",NA,NA,"Pearl River along right bank between mouth of Coburn & Bogalusa Creeks.",NA,NA,1982,7,6,"R.D. Suttkus & S.O. Rohmann",NA,NA,"PreservedSpecimen","",NA,"control","1974-1983","control_1974-1983",4
"261","TU","Fish",112536,21,"Carpiodes velifer","Catostomidae",NA,NA,30.77861,-89.82972,NA,NA,"United States of America","Louisiana","Washington",NA,NA,"Pearl River along left bank just above Coburn Creek; 1.5 mi. E of Bogalusa.",NA,NA,1979,4,20,"P. Sorensen & S.O. Rohmann",NA,NA,"PreservedSpecimen","",NA,"control","1974-1983","control_1974-1983",4
"20","TU","Fish",159136,22,"Carpiodes velifer","Catostomidae",NA,NA,30.77583,-89.82722,NA,NA,"United States of America","Mississippi","Pearl River",NA,NA,"Pearl River along left bank opposite Coburn Creek.",NA,NA,1990,10,19,"R.D. Suttkus & J.H. Caruso",NA,NA,"PreservedSpecimen","",NA,"control","1984-1993","control_1984-1993",4
"225","TU","Fish",134748,11,"Carpiodes velifer","Catostomidae",NA,NA,30.7675,-89.83028,NA,NA,"United States of America","Mississippi","Pearl River",NA,NA,"Pearl River along left bank between Coburn & Bogalusa Creeks.",NA,NA,1984,4,26,"R.D. Suttkus & V. Trau",NA,NA,"PreservedSpecimen","",NA,"control","1984-1993","control_1984-1993",4
"21","TU","Fish",159147,10,"Carpiodes velifer","Catostomidae",NA,NA,30.76528,-89.83222,NA,NA,"United States of America","Mississippi","Pearl River",NA,NA,"Pearl River along left bank opposite Bogalusa Creek.",NA,NA,1990,10,19,"R.D. Suttkus & J.H. Caruso",NA,NA,"PreservedSpecimen","",NA,"control","1984-1993","control_1984-1993",4
"30","TU","Fish",162055,21,"Carpiodes velifer","Catostomidae",NA,NA,30.77583,-89.82722,NA,NA,"United States of America","Mississippi","Pearl River",NA,NA,"Pearl River along left bank opposite Coburn Creek.",NA,NA,1992,1,2,"R.D. Suttkus, J.S. Suttkus & G. Kotsis",NA,NA,"PreservedSpecimen","",NA,"control","1984-1993","control_1984-1993",4
"240","TU","Fish",148202,9,"Carpiodes velifer","Catostomidae",NA,NA,30.77583,-89.82722,NA,NA,"United States of America","Mississippi","Pearl River",NA,NA,"Pearl River along left bank opposite Coburn Creek.",NA,NA,1987,4,2,"R.D. Suttkus & J.H. Caruso",NA,NA,"PreservedSpecimen","",NA,"control","1984-1993","control_1984-1993",4
"66","TU","Fish",178358,11,"Carpiodes velifer","Catostomidae",NA,NA,30.77611,-89.82722,NA,NA,"United States of America","Mississippi","Pearl River",NA,NA,"Pearl River along left bank opposite mouth of Bogalusa Creek.",NA,NA,1996,4,6,"R.D. & J.S. Suttkus",NA,NA,"PreservedSpecimen","",NA,"control","1994-2003","control_1994-2003",4
"50","TU","Fish",169768,11,"Carpiodes velifer","Catostomidae",NA,NA,30.76528,-89.83222,NA,NA,"United States of America","Mississippi","Pearl River",NA,NA,"Pearl River along left bank opposite Bogalusa Creek.",NA,NA,1994,4,9,"R.D. Suttkus & J.S. Suttkus",NA,NA,"PreservedSpecimen","",NA,"control","1994-2003","control_1994-2003",4
"13","TU","Fish",31560,21,"Carpiodes velifer","Catostomidae",NA,NA,30.74,-89.82777,NA,NA,"United States of America","Louisiana","Washington",NA,NA,"Pearl River at River Mile 53.7; 2.3 mi. SE of Bogalusa.",NA,NA,1963,6,13,"G.E. Gunning & J. Shireman",NA,NA,"PreservedSpecimen","",NA,"impact","1954-1963","impact_1954-1963",4
"94","TU","Fish",31199,11,"Carpiodes velifer","Catostomidae",NA,NA,30.74,-89.82777,NA,NA,"United States of America","Louisiana","Washington",NA,NA,"Pearl River at River Mile 53.7; 2.3 mi. SE of Bogalusa.",NA,NA,1963,5,20,"R.D. Suttkus & G.E. Gunning",NA,NA,"PreservedSpecimen","",NA,"impact","1954-1963","impact_1954-1963",4
"93","TU","Fish",31360,42,"Carpiodes velifer","Catostomidae",NA,NA,30.74083,-89.82611,NA,NA,"United States of America","Louisiana","Washington",NA,NA,"Pearl River about River Mile 54.3; 2.2 miles SE of Bogalusa",NA,NA,1963,5,20,"R.D. Suttkus & G.E. Gunning",NA,NA,"PreservedSpecimen","",NA,"impact","1954-1963","impact_1954-1963",4
"14","TU","Fish",31599,12,"Carpiodes velifer","Catostomidae",NA,NA,30.74,-89.82777,NA,NA,"United States of America","Louisiana","Washington",NA,NA,"Pearl River at River Mile 53.7; 2.3 mi. SE of Bogalusa.",NA,NA,1963,6,14,"G.E. Gunning & J. Shireman",NA,NA,"PreservedSpecimen","",NA,"impact","1954-1963","impact_1954-1963",4
"6","TU","Fish",79541,16,"Carpiodes velifer","Catostomidae",NA,NA,30.74055,-89.82694,NA,NA,"United States of America","Louisiana","Washington",NA,NA,"Pearl River at sandbar, River Mile 54 - Fish Stat. #4.",NA,NA,1972,7,12,"B.A. Thompson & Cashner",NA,NA,"PreservedSpecimen","",NA,"impact","1964-1973","impact_1964-1973",4
"5","TU","Fish",79528,8,"Carpiodes velifer","Catostomidae",NA,NA,30.75667,-89.82611,NA,NA,"United States of America","Louisiana","Washington",NA,NA,"Pearl River at sandbar 0.5 mi. below Richardson Landing.",NA,NA,1972,7,12,"B.A. Thompson & Cashner",NA,NA,"PreservedSpecimen","",NA,"impact","1964-1973","impact_1964-1973",4
"147","TU","Fish",48066,9,"Carpiodes velifer","Catostomidae",NA,NA,30.74055,-89.82694,NA,NA,"United States of America","Louisiana","Washington",NA,NA,"Pearl River at River Mile 54, 2.3 miles SE of Bogalusa - Fish Stat. #4.",NA,NA,1967,10,4,"R.D. Suttkus & G.E. Gunning",NA,NA,"PreservedSpecimen","",NA,"impact","1964-1973","impact_1964-1973",4
"133","TU","Fish",38138,15,"Carpiodes velifer","Catostomidae",NA,NA,30.75667,-89.82611,NA,NA,"United States of America","Louisiana","Washington",NA,NA,"Pearl River 0.5 mi. below Richardson Landing, 1.5 mi. SE of Bogalusa.",NA,NA,1965,8,6,"R.D. Suttkus & G.E. Gunning",NA,NA,"PreservedSpecimen","",NA,"impact","1964-1973","impact_1964-1973",4
"130","TU","Fish",37950,10,"Carpiodes velifer","Catostomidae",NA,NA,30.75667,-89.82611,NA,NA,"United States of America","Louisiana","Washington",NA,NA,"[Pearl River] 0.5 mi. below Richardson Landing; 1.5 mi. SE of Bogalusa.",NA,NA,1965,7,5,"R.D. Suttkus & G.E. Gunning",NA,NA,"PreservedSpecimen","",NA,"impact","1964-1973","impact_1964-1973",4
"217","TU","Fish",126138,9,"Carpiodes velifer","Catostomidae",NA,NA,30.74055,-89.82694,NA,NA,"United States of America","Mississippi","Pearl River",NA,NA,"Pearl River along left bank at River Mile 54.",NA,NA,1982,7,6,"R.D. Suttkus & S.O. Rohmann",NA,NA,"PreservedSpecimen","",NA,"impact","1974-1983","impact_1974-1983",4
"260","TU","Fish",112555,20,"Carpiodes velifer","Catostomidae",NA,NA,30.74472,-89.82528,NA,NA,"United States of America","Louisiana","Washington",NA,NA,"Pearl River along left bank 1.75 mi. below Richardson Landing.",NA,NA,1979,4,20,"P. Sorensen & S.O. Rohmann",NA,NA,"PreservedSpecimen","",NA,"impact","1974-1983","impact_1974-1983",4
"183","TU","Fish",101695,39,"Carpiodes velifer","Catostomidae",NA,NA,30.75417,-89.82222,NA,NA,"United States of America","Louisiana","Washington",NA,NA,"Pearl River along left bank about 1 mi. below Richardson Landing.",NA,NA,1977,4,13,"R.D. Suttkus & P. Sorensen",NA,NA,"PreservedSpecimen","",NA,"impact","1974-1983","impact_1974-1983",4
"211","TU","Fish",123322,14,"Carpiodes velifer","Catostomidae",NA,NA,30.74055,-89.82694,NA,NA,"United States of America","Louisiana","Washington",NA,NA,"Pearl River along left bank at River Mile 54, 2.3 mi. SE of Bogalusa.",NA,NA,1981,10,22,"R.D. Suttkus & S.O. Rohmann",NA,NA,"PreservedSpecimen","",NA,"impact","1974-1983","impact_1974-1983",4
"216","TU","Fish",126123,15,"Carpiodes velifer","Catostomidae",NA,NA,30.75667,-89.82611,NA,NA,"United States of America","Louisiana","Washington",NA,NA,"Pearl River along right bank 0.5 mi. below Richardson Landing.",NA,NA,1982,7,6,"R.D. Suttkus & S.O. Rohmann",NA,NA,"PreservedSpecimen","",NA,"impact","1974-1983","impact_1974-1983",4
"253","TU","Fish",152931,11,"Carpiodes velifer","Catostomidae",NA,NA,30.74055,-89.82694,NA,NA,"United States of America","Mississippi","Pearl River",NA,NA,"Pearl River along left bank at River Mile 54.",NA,NA,1988,7,21,"R.D. Suttkus & J.H. Caruso",NA,NA,"PreservedSpecimen","",NA,"impact","1984-1993","impact_1984-1993",4
"23","TU","Fish",159171,8,"Carpiodes velifer","Catostomidae",NA,NA,30.74055,-89.82694,NA,NA,"United States of America","Mississippi","Pearl River",NA,NA,"Pearl River along left bank at River Mile 54.",NA,NA,1990,10,19,"R.D. Suttkus & J.H. Caruso",NA,NA,"PreservedSpecimen","",NA,"impact","1984-1993","impact_1984-1993",4
"233","TU","Fish",141572,8,"Carpiodes velifer","Catostomidae",NA,NA,30.74055,-89.82694,NA,NA,"United States of America","Mississippi","Pearl River",NA,NA,"Pearl River along left bank at River Mile 54; 2.3 mi. SE of Bogalusa.",NA,NA,1985,7,1,"R.D. Suttkus & K.G. Goodfellow",NA,NA,"PreservedSpecimen","",NA,"impact","1984-1993","impact_1984-1993",4
"248","TU","Fish",151218,53,"Carpiodes velifer","Catostomidae",NA,NA,30.75667,-89.82611,NA,NA,"United States of America","Louisiana","Washington",NA,NA,"Pearl River along right bank 0.5 mi. below Richardson Landing.",NA,NA,1988,1,14,"R.D. Suttkus & J.H. Caruso",NA,NA,"PreservedSpecimen","",NA,"impact","1984-1993","impact_1984-1993",4
"32","TU","Fish",162077,9,"Carpiodes velifer","Catostomidae",NA,NA,30.75667,-89.82611,NA,NA,"United States of America","Louisiana","Washington",NA,NA,"Pearl River along right bank 0.5 mi. below Richardson Landing.",NA,NA,1992,1,2,"R.D. Suttkus, J.S. Suttkus & G. Kotsis",NA,NA,"PreservedSpecimen","",NA,"impact","1984-1993","impact_1984-1993",4
"65","TU","Fish",177831,10,"Carpiodes velifer","Catostomidae",NA,NA,30.74195,-89.82528,NA,NA,"United States of America","Louisiana","Washington",NA,NA,"Pearl River along right bank two bends above River Mile 54.",NA,NA,1996,1,13,"R.D. & J.S. Suttkus",NA,NA,"PreservedSpecimen","",NA,"impact","1994-2003","impact_1994-2003",4
"60","TU","Fish",172558,9,"Carpiodes velifer","Catostomidae",NA,NA,30.74055,-89.82694,NA,NA,"United States of America","Mississippi","Pearl River",NA,NA,"Pearl River along left bank at River Mile 54.",NA,NA,1995,1,14,"R.D. & J.S. Suttkus",NA,NA,"PreservedSpecimen","",NA,"impact","1994-2003","impact_1994-2003",4
"85","TU","Fish",190972,9,"Carpiodes velifer","Catostomidae",NA,NA,30.74195,-89.82528,NA,NA,"United States of America","Louisiana","Washington",NA,NA,"Pearl River along right bank at second bend above River Mile 54.",NA,NA,2000,7,1,"",NA,NA,"PreservedSpecimen","",NA,"impact","1994-2003","impact_1994-2003",4
"48","TU","Fish",169491,16,"Carpiodes velifer","Catostomidae",NA,NA,30.75667,-89.82611,NA,NA,"United States of America","Louisiana","Washington",NA,NA,"Pearl River along right bank 0.5 mi. below Richardson Landing.",NA,NA,1994,1,15,"R.D. Suttkus & J.S. Suttkus",NA,NA,"PreservedSpecimen","",NA,"impact","1994-2003","impact_1994-2003",4
"51","TU","Fish",169777,19,"Carpiodes velifer","Catostomidae",NA,NA,30.75667,-89.82611,NA,NA,"United States of America","Louisiana","Washington",NA,NA,"Pearl River along right bank 0.5 mi. below Richardson Landing.",NA,NA,1994,4,9,"R.D. Suttkus & J.S. Suttkus",NA,NA,"PreservedSpecimen","",NA,"impact","1994-2003","impact_1994-2003",4
"1041","TU","Fish",31000,10,"Carpiodes velifer","Catostomidae",NA,NA,30.77861,-89.82972,NA,NA,"United States of America","Louisiana","Washington",NA,NA,"Pearl River just above mouth of Coburn Creek, 1.5 miles E of Hwy. 7 in Bogalusa (left bank).",NA,NA,1963,12,12,"R.D. Suttkus & G.E. Gunning",NA,NA,"PreservedSpecimen","",NA,"control","1954-1963","control_1954-1963",4
"103","TU","Fish",31554,72,"Carpiodes velifer","Catostomidae",NA,NA,30.77861,-89.82972,NA,NA,"United States of America","Louisiana","Washington",NA,NA,"Pearl River just above mouth of Coburn Creek; 1.5 mi. E of Hwy. 7 in Bogalusa.",NA,NA,1963,6,13,"G.E. Gunning & J. Shireman",NA,NA,"PreservedSpecimen","",NA,"control","1954-1963","control_1954-1963",4
"902","TU","Fish",31117,9,"Carpiodes velifer","Catostomidae",NA,NA,30.77861,-89.82972,NA,NA,"United States of America","Louisiana","Washington",NA,NA,"Pearl River just above mouth of Coburn Creek, 1.5 mi. E of Hwy. 7 in Bogalusa.",NA,NA,1963,4,27,"R.D. Suttkus & G.E. Gunning",NA,NA,"PreservedSpecimen","",NA,"control","1954-1963","control_1954-1963",4
"47","TU","Fish",175630,13,"Gambusia affinis","Poeciliidae",NA,NA,30.75417,-89.82694,NA,NA,"United States of America","Mississippi","Pearl River",NA,NA,"Pearl River along left bank at second bend below Richardson Landing.",NA,NA,1995,7,29,"R.D. & J.S. Suttkus",NA,NA,"PreservedSpecimen","",NA,"impact","1994-2003","impact_1994-2003",4
"167","TU","Fish",121243,20,"Gambusia affinis","Poeciliidae",NA,NA,30.7825,-89.82027,NA,NA,"United States of America","Louisiana","Washington",NA,NA,"Pearl River along left bank, 1.0 mi. below Hwy. 10 bridge.",NA,NA,1981,4,30,"R.D. Suttkus & P.Y. Sorensen",NA,NA,"PreservedSpecimen","",NA,"control","1974-1983","control_1974-1983",4
"165","TU","Fish",120226,11,"Gambusia affinis","Poeciliidae",NA,NA,30.76805,-89.83083,NA,NA,"United States of America","Louisiana","Washington",NA,NA,"Pearl River along right bank between Coburn & Bogalusa Creeks.",NA,NA,1981,1,22,"R.D. Suttkus & P.Y. Sorensen",NA,NA,"PreservedSpecimen","",NA,"control","1974-1983","control_1974-1983",4
"140","TU","Fish",87325,71,"Gambusia affinis","Poeciliidae",NA,NA,30.76222,-89.83111,NA,NA,"United States of America","Louisiana","Washington",NA,NA,"Pearl River at Richardson Landing.",NA,NA,1974,4,22,"R.D. Suttkus & B.A. Thompson",NA,NA,"PreservedSpecimen","",NA,"control","1974-1983","control_1974-1983",4
"159","TU","Fish",115103,29,"Gambusia affinis","Poeciliidae",NA,NA,30.78,-89.82472,NA,NA,"United States of America","Louisiana","Washington",NA,NA,"Pearl River along left bank at second bend below LA Hwy. 10.",NA,NA,1979,10,24,"R.D. Suttkus & G.E. Gunning",NA,NA,"PreservedSpecimen","",NA,"control","1974-1983","control_1974-1983",4
"168","TU","Fish",121273,32,"Gambusia affinis","Poeciliidae",NA,NA,30.76805,-89.83083,NA,NA,"United States of America","Louisiana","Washington",NA,NA,"Pearl River along right bank between mouth of Coburn & Bogalusa Creeks.",NA,NA,1981,4,30,"R.D. Suttkus & P.Y. Sorensen",NA,NA,"PreservedSpecimen","",NA,"control","1974-1983","control_1974-1983",4
"213","TU","Fish",148200,8,"Gambusia affinis","Poeciliidae",NA,NA,30.7825,-89.82027,NA,NA,"United States of America","Mississippi","Pearl River",NA,NA,"Pearl River along left bank 1.0 mi. below Hwy. 26.",NA,NA,1987,4,2,"R.D. Suttkus & J.H. Caruso",NA,NA,"PreservedSpecimen","",NA,"control","1984-1993","control_1984-1993",4
"67","TU","Fish",157858,11,"Gambusia affinis","Poeciliidae",NA,NA,30.76528,-89.83222,NA,NA,"United States of America","Mississippi","Pearl River",NA,NA,"Pearl River along left bank opposite Bogalusa Creek.",NA,NA,1990,4,27,"R.D. Suttkus & J.H. Caruso",NA,NA,"PreservedSpecimen","",NA,"control","1984-1993","control_1984-1993",4
"2091","TU","Fish",146729,29,"Gambusia affinis","Poeciliidae",NA,NA,30.76528,-89.83222,NA,NA,"United States of America","Mississippi","Pearl River",NA,NA,"Pearl River along left bank opposite mouth of Bogalusa Creek.",NA,NA,1986,10,9,"R.D. Suttkus & J.H. Caruso",NA,NA,"PreservedSpecimen","",NA,"control","1984-1993","control_1984-1993",4
"198","TU","Fish",145183,62,"Gambusia affinis","Poeciliidae",NA,NA,30.77583,-89.82722,NA,NA,"United States of America","Mississippi","Pearl River",NA,NA,"Pearl River along left bank opposite Coburn Creek.",NA,NA,1986,4,24,"R.D. Suttkus & K.G. Goodfellow",NA,NA,"PreservedSpecimen","",NA,"control","1984-1993","control_1984-1993",4
"199","TU","Fish",145192,47,"Gambusia affinis","Poeciliidae",NA,NA,30.76528,-89.83222,NA,NA,"United States of America","Mississippi","Pearl River",NA,NA,"Pearl River along left bank opposite Bogalusa Creek.",NA,NA,1986,4,24,"R.D. Suttkus & K.G. Goodfellow",NA,NA,"PreservedSpecimen","",NA,"control","1984-1993","control_1984-1993",4
"49","TU","Fish",176893,12,"Gambusia affinis","Poeciliidae",NA,NA,30.7825,-89.82027,NA,NA,"United States of America","Louisiana","Washington",NA,NA,"Pearl River along right bank 1.0 mi. below LA Hwy. 10.",NA,NA,1995,10,7,"R.D. Suttkus & C.H. Dannemann",NA,NA,"PreservedSpecimen","",NA,"control","1994-2003","control_1994-2003",4
"81","TU","Fish",185797,9,"Gambusia affinis","Poeciliidae",NA,NA,30.77611,-89.82777,NA,NA,"United States of America","Mississippi","Pearl River",NA,NA,"Pearl River along left bank opposite Coburn Creek",NA,NA,1998,4,25,"R.D. & J.S. Suttkus",NA,NA,"PreservedSpecimen","",NA,"control","1994-2003","control_1994-2003",4
"55","TU","Fish",177787,21,"Gambusia affinis","Poeciliidae",NA,NA,30.78472,-89.81944,NA,NA,"United States of America","Louisiana","Washington",NA,NA,"Pearl River along right bank 0.8 mi. below LA Hwy. 10.",NA,NA,1996,1,13,"R.D. & J.S. Suttkus",NA,NA,"PreservedSpecimen","",NA,"control","1994-2003","control_1994-2003",4
"245","TU","Fish",196194,12,"Gambusia affinis","Poeciliidae",NA,NA,30.7825,-89.82027,NA,NA,"United States of America","Louisiana","Washington",NA,NA,"Pearl River along right bank, 1.0 mi. below LA Hwy. 10.",NA,NA,2003,7,19,"R.D. & J.S. Suttkus",NA,NA,"PreservedSpecimen","",NA,"control","1994-2003","control_1994-2003",4
"501","TU","Fish",176914,8,"Gambusia affinis","Poeciliidae",NA,NA,30.76528,-89.83222,NA,NA,"United States of America","Mississippi","Pearl River",NA,NA,"Pearl River along left bank opposite Bogalusa Creek.",NA,NA,1995,10,7,"R.D. Suttkus & C.H. Dannemann",NA,NA,"PreservedSpecimen","",NA,"control","1994-2003","control_1994-2003",4
"135","TU","Fish",31560,21,"Carpiodes velifer","Catostomidae",NA,NA,30.74,-89.82777,NA,NA,"United States of America","Louisiana","Washington",NA,NA,"Pearl River at River Mile 53.7; 2.3 mi. SE of Bogalusa.",NA,NA,1963,6,13,"G.E. Gunning & J. Shireman",NA,NA,"PreservedSpecimen","",NA,"impact","1954-1963","impact_1954-1963",4
"941","TU","Fish",31199,11,"Carpiodes velifer","Catostomidae",NA,NA,30.74,-89.82777,NA,NA,"United States of America","Louisiana","Washington",NA,NA,"Pearl River at River Mile 53.7; 2.3 mi. SE of Bogalusa.",NA,NA,1963,5,20,"R.D. Suttkus & G.E. Gunning",NA,NA,"PreservedSpecimen","",NA,"impact","1954-1963","impact_1954-1963",4
"931","TU","Fish",31360,42,"Carpiodes velifer","Catostomidae",NA,NA,30.74083,-89.82611,NA,NA,"United States of America","Louisiana","Washington",NA,NA,"Pearl River about River Mile 54.3; 2.2 miles SE of Bogalusa",NA,NA,1963,5,20,"R.D. Suttkus & G.E. Gunning",NA,NA,"PreservedSpecimen","",NA,"impact","1954-1963","impact_1954-1963",4
"142","TU","Fish",31599,12,"Carpiodes velifer","Catostomidae",NA,NA,30.74,-89.82777,NA,NA,"United States of America","Louisiana","Washington",NA,NA,"Pearl River at River Mile 53.7; 2.3 mi. SE of Bogalusa.",NA,NA,1963,6,14,"G.E. Gunning & J. Shireman",NA,NA,"PreservedSpecimen","",NA,"impact","1954-1963","impact_1954-1963",4
"1","TU","Fish",53236,21,"Gambusia affinis","Poeciliidae",NA,NA,30.70389,-89.84556,NA,NA,"United States of America","Louisiana","Washington",NA,NA,"Pools Bluff Sill at boat launching area.",NA,NA,1968,7,18,"Cashner, Berra, Harrington, Smith & Laska",NA,NA,"PreservedSpecimen","",NA,"impact","1964-1973","impact_1964-1973",4
"138","TU","Fish",76628,28,"Gambusia affinis","Poeciliidae",NA,NA,30.75667,-89.82611,NA,NA,"United States of America","Louisiana","Washington",NA,NA,"Pearl River 0.5 mi. below Richardson Landing, 1.5 mi. SE of Bogalusa.",NA,NA,1972,4,18,"R.D. Suttkus & Cashner",NA,NA,"PreservedSpecimen","",NA,"impact","1964-1973","impact_1964-1973",4
"1301","TU","Fish",56093,9,"Gambusia affinis","Poeciliidae",NA,NA,30.705,-89.84611,NA,NA,"United States of America","Louisiana","Washington",NA,NA,"Pearl River just above sill at Pools Bluff; 4 mi. S of Bogalusa - Fish Stat. #5.",NA,NA,1969,1,9,"R.D. Suttkus & G.E. Gunning",NA,NA,"PreservedSpecimen","",NA,"impact","1964-1973","impact_1964-1973",4
"129","TU","Fish",53931,24,"Gambusia affinis","Poeciliidae",NA,NA,30.70222,-89.84417,NA,NA,"United States of America","Louisiana","Washington",NA,NA,"Pearl River just below sill at Pools Bluff; 4 mi. S of Bogalusa - Fish Stat. #6.",NA,NA,1968,10,23,"R.D. Suttkus & G.E. Gunning",NA,NA,"PreservedSpecimen","",NA,"impact","1964-1973","impact_1964-1973",4
"128","TU","Fish",53901,8,"Gambusia affinis","Poeciliidae",NA,NA,30.705,-89.84611,NA,NA,"United States of America","Louisiana","Washington",NA,NA,"Pearl River just above sill at Pools Bluff; 4 mi. S of Bogalusa - Fish Stat. #5.",NA,NA,1968,10,23,"R.D. Suttkus & G.E. Gunning",NA,NA,"PreservedSpecimen","",NA,"impact","1964-1973","impact_1964-1973",4
"141","TU","Fish",88469,9,"Gambusia affinis","Poeciliidae",NA,NA,30.705,-89.84611,NA,NA,"United States of America","Louisiana","Washington",NA,NA,"Pearl River just above sill at Pools Bluff, 4 mi. S of Bogalusa.",NA,NA,1974,7,9,"R.D. Suttkus & D.C. Heins",NA,NA,"PreservedSpecimen","",NA,"impact","1974-1983","impact_1974-1983",4
"169","TU","Fish",121291,35,"Gambusia affinis","Poeciliidae",NA,NA,30.75667,-89.82611,NA,NA,"United States of America","Louisiana","Washington",NA,NA,"Pearl River along right bank 0.5 mi. below Richardson Landing, 1.5 mi. SE of Bogalusa.",NA,NA,1981,4,30,"R.D. Suttkus & P.Y. Sorensen",NA,NA,"PreservedSpecimen","",NA,"impact","1974-1983","impact_1974-1983",4
"178","TU","Fish",130478,9,"Gambusia affinis","Poeciliidae",NA,NA,30.70222,-89.84417,NA,NA,"United States of America","Mississippi","Pearl River",NA,NA,"Pearl River along left bank just below Pools Bluff Sill.",NA,NA,1983,7,23,"R.D. Suttkus & V.C. Trau",NA,NA,"PreservedSpecimen","",NA,"impact","1974-1983","impact_1974-1983",4
"174","TU","Fish",128078,12,"Gambusia affinis","Poeciliidae",NA,NA,30.70222,-89.84417,NA,NA,"United States of America","Mississippi","Pearl River",NA,NA,"Pearl River along left bank just below Pools Bluff Sill.",NA,NA,1982,10,21,"R.D. Suttkus & S.O. Rohmann",NA,NA,"PreservedSpecimen","",NA,"impact","1974-1983","impact_1974-1983",4
"179","TU","Fish",132481,28,"Gambusia affinis","Poeciliidae",NA,NA,30.70222,-89.84417,NA,NA,"United States of America","Mississippi","Pearl River",NA,NA,"Pearl River along left bank just below Pools Bluff Sill.",NA,NA,1983,10,6,"R.D. Suttkus & G.E. Gunning",NA,NA,"PreservedSpecimen","",NA,"impact","1974-1983","impact_1974-1983",4
"221","TU","Fish",151243,19,"Gambusia affinis","Poeciliidae",NA,NA,30.705,-89.84611,NA,NA,"United States of America","Mississippi","Pearl River",NA,NA,"Pearl River along left bank just above Pools Bluff Sill.",NA,NA,1988,1,14,"R.D. Suttkus & J.H. Caruso",NA,NA,"PreservedSpecimen","",NA,"impact","1984-1993","impact_1984-1993",4
"207","TU","Fish",145868,11,"Gambusia affinis","Poeciliidae",NA,NA,30.705,-89.84611,NA,NA,"United States of America","Louisiana","Washington",NA,NA,"Pearl River along left bank just above Pools Bluff Sill 4 mi. S of Bogalusa.",NA,NA,1986,7,1,"R.D. Suttkus & K.G. Goodfellow",NA,NA,"PreservedSpecimen","",NA,"impact","1984-1993","impact_1984-1993",4
"17","TU","Fish",162917,14,"Gambusia affinis","Poeciliidae",NA,NA,30.74055,-89.82694,NA,NA,"United States of America","Mississippi","Pearl River",NA,NA,"Pearl River along left bank at River Mile 54.",NA,NA,1992,4,24,"R.D. Suttkus & J.S. Suttkus",NA,NA,"PreservedSpecimen","",NA,"impact","1984-1993","impact_1984-1993",4
"131","TU","Fish",161648,39,"Gambusia affinis","Poeciliidae",NA,NA,30.74055,-89.82694,NA,NA,"United States of America","Mississippi","Pearl River",NA,NA,"Pearl River along left bank at River Mile 54.",NA,NA,1991,10,26,"R.D. Suttkus & J.S. Suttkus",NA,NA,"PreservedSpecimen","",NA,"impact","1984-1993","impact_1984-1993",4
"200","TU","Fish",145203,40,"Gambusia affinis","Poeciliidae",NA,NA,30.75667,-89.82611,NA,NA,"United States of America","Louisiana","Washington",NA,NA,"Pearl River along right bank 0.5 mi. below Richardson Landing.",NA,NA,1986,4,24,"R.D. Suttkus & K.G. Goodfellow",NA,NA,"PreservedSpecimen","",NA,"impact","1984-1993","impact_1984-1993",4
"2481","TU","Fish",196237,9,"Gambusia affinis","Poeciliidae",NA,NA,30.75444,-89.82722,NA,NA,"United States of America","Mississippi","Pearl River",NA,NA,"Pearl River along left bank at second bend below Richardson Ldg.",NA,NA,2003,7,19,"R.D. & J.S. Suttkus",NA,NA,"PreservedSpecimen","",NA,"impact","1994-2003","impact_1994-2003",4
"64","TU","Fish",181398,16,"Gambusia affinis","Poeciliidae",NA,NA,30.70389,-89.84472,NA,NA,"United States of America","Mississippi","Pearl River",NA,NA,"Pearl River along left bank just below Pools Bluff Sill.",NA,NA,1996,10,5,"R.D. & J.S. Suttkus",NA,NA,"PreservedSpecimen","",NA,"impact","1994-2003","impact_1994-2003",4
"54","TU","Fish",176966,62,"Gambusia affinis","Poeciliidae",NA,NA,30.70222,-89.84417,NA,NA,"United States of America","Mississippi","Pearl River",NA,NA,"Pearl River along left bank just below Pools Bluff Sill.",NA,NA,1995,10,7,"R.D. Suttkus & C.H. Dannemann",NA,NA,"PreservedSpecimen","",NA,"impact","1994-2003","impact_1994-2003",4
"102","TU","Fish",189558,44,"Gambusia affinis","Poeciliidae",NA,NA,30.70389,-89.84472,NA,NA,"United States of America","Mississippi","Pearl River",NA,NA,"Pearl River along left bank just below Pools Bluff Sill.",NA,NA,1999,10,9,"R.D. & J.S. Suttkus",NA,NA,"PreservedSpecimen","",NA,"impact","1994-2003","impact_1994-2003",4
"99","TU","Fish",189518,60,"Gambusia affinis","Poeciliidae",NA,NA,30.75444,-89.82722,NA,NA,"United States of America","Mississippi","Pearl River",NA,NA,"Pearl River along left bank at second bend below Richardson Ldg.",NA,NA,1999,10,9,"R.D. & J.S. Suttkus",NA,NA,"PreservedSpecimen","",NA,"impact","1994-2003","impact_1994-2003",4
"2611","TU","Fish",31114,11,"Hybognathus nuchalis","Cyprinidae",NA,NA,30.77861,-89.82972,NA,NA,"United States of America","Louisiana","Washington",NA,NA,"Pearl River just above mouth of Coburn Creek, 1.5 mi. E of Hwy. 7 in Bogalusa.",NA,NA,1963,4,27,"R.D. Suttkus & G.E. Gunning",NA,NA,"PreservedSpecimen","",NA,"control","1954-1963","control_1954-1963",4
"277","TU","Fish",30995,8,"Hybognathus nuchalis","Cyprinidae",NA,NA,30.77861,-89.82972,NA,NA,"United States of America","Louisiana","Washington",NA,NA,"Pearl River just above mouth of Coburn Creek, 1.5 miles E of Hwy. 7 in Bogalusa (left bank).",NA,NA,1963,12,12,"R.D. Suttkus & G.E. Gunning",NA,NA,"PreservedSpecimen","",NA,"control","1954-1963","control_1954-1963",4
"267","TU","Fish",31145,18,"Hybognathus nuchalis","Cyprinidae",NA,NA,30.77861,-89.82972,NA,NA,"United States of America","Louisiana","Washington",NA,NA,"Pearl River just above Coburn Creek, 1.5 mi. E of Hwy 7 in Bogalusa",NA,NA,1963,6,23,"R.D. Suttkus & G.E. Gunning",NA,NA,"PreservedSpecimen","",NA,"control","1954-1963","control_1954-1963",4
"263","TU","Fish",31194,14,"Hybognathus nuchalis","Cyprinidae",NA,NA,30.77861,-89.82972,NA,NA,"United States of America","Louisiana","Washington",NA,NA,"Pearl River just above mouth of Coburn Creek; 1.5 miles E of Hwy. 7 in Bogalusa.",NA,NA,1963,5,19,"R.D. Suttkus & G.E. Gunning",NA,NA,"PreservedSpecimen","",NA,"control","1954-1963","control_1954-1963",4
"314","TU","Fish",35720,20,"Hybognathus nuchalis","Cyprinidae",NA,NA,30.76805,-89.83083,NA,NA,"United States of America","Louisiana","Washington",NA,NA,"Pearl River between Coburn & Bogalusa Creeks, 1.5 mi. E of Hwy. 7 in Bogalusa.",NA,NA,1964,11,5,"R.D. Suttkus & G.E. Gunning",NA,NA,"PreservedSpecimen","",NA,"control","1964-1973","control_1964-1973",4
"454","TU","Fish",59432,35,"Hybognathus nuchalis","Cyprinidae",NA,NA,30.77861,-89.82972,NA,NA,"United States of America","Louisiana","Washington",NA,NA,"Pearl River just above mouth of Coburn Creek (on opposite side of river) 1.5 mi. E of Bogalusa.",NA,NA,1969,10,28,"R.D. Suttkus & G.E. Gunning",NA,NA,"PreservedSpecimen","",NA,"control","1964-1973","control_1964-1973",4
"346","TU","Fish",37937,11,"Hybognathus nuchalis","Cyprinidae",NA,NA,30.77861,-89.82972,NA,NA,"United States of America","Louisiana","Washington",NA,NA,"Pearl River just above Coburn Creek, 1.4 mi. E of Bogalusa.",NA,NA,1965,7,5,"R.D. Suttkus & G.E. Gunning",NA,NA,"PreservedSpecimen","",NA,"control","1964-1973","control_1964-1973",4
"486","TU","Fish",70490,246,"Hybognathus nuchalis","Cyprinidae",NA,NA,30.77861,-89.82972,NA,NA,"United States of America","Louisiana","Washington",NA,NA,"Pearl River just above mouth of Coburn Creek - Fish Stat. #1.",NA,NA,1971,7,15,"R.D. Suttkus & B.A. Thompson",NA,NA,"PreservedSpecimen","",NA,"control","1964-1973","control_1964-1973",4
"342","TU","Fish",37881,11,"Hybognathus nuchalis","Cyprinidae",NA,NA,30.77861,-89.82972,NA,NA,"United States of America","Louisiana","Washington",NA,NA,"Pearl River just above Coburn Creek, 1.4 mi. E of Bogalusa.",NA,NA,1965,6,9,"R.D. Suttkus & G.E. Gunning",NA,NA,"PreservedSpecimen","",NA,"control","1964-1973","control_1964-1973",4
"607","TU","Fish",106077,39,"Hybognathus nuchalis","Cyprinidae",NA,NA,30.77861,-89.82972,NA,NA,"United States of America","Louisiana","Washington",NA,NA,"Pearl River along left bank above Coburn Creek, 1.5 mi. E of Bogalusa.",NA,NA,1978,2,23,"Rohmann & G.E. Gunning",NA,NA,"PreservedSpecimen","",NA,"control","1974-1983","control_1974-1983",4
"546","TU","Fish",95991,21,"Hybognathus nuchalis","Cyprinidae",NA,NA,30.76805,-89.83083,NA,NA,"United States of America","Louisiana","Washington",NA,NA,"Pearl River between Coburn & Bogalusa Creeks, 1.5 mi. E of Bogalusa.",NA,NA,1975,10,23,"R.D. Suttkus & Sobczak",NA,NA,"PreservedSpecimen","",NA,"control","1974-1983","control_1974-1983",4
"675","TU","Fish",121255,33,"Hybognathus nuchalis","Cyprinidae",NA,NA,30.77861,-89.82972,NA,NA,"United States of America","Louisiana","Washington",NA,NA,"Pearl River along left bank just above Coburn Creek; 1.5 mi. E of Bogalusa.",NA,NA,1981,4,30,"R.D. Suttkus & P.Y. Sorensen",NA,NA,"PreservedSpecimen","",NA,"control","1974-1983","control_1974-1983",4
"171","TU","Fish",97614,19,"Hybognathus nuchalis","Cyprinidae",NA,NA,30.76222,-89.83111,NA,NA,"United States of America","Louisiana","Washington",NA,NA,"Pearl River at Richardson Landing.",NA,NA,1976,4,15,"G.E. Gunning & D.C. Heins",NA,NA,"PreservedSpecimen","",NA,"control","1974-1983","control_1974-1983",4
"614","TU","Fish",106828,23,"Hybognathus nuchalis","Cyprinidae",NA,NA,30.76805,-89.83083,NA,NA,"United States of America","Louisiana","Washington",NA,NA,"Pearl River along right bank between mouth of Coburn & Bogalusa Creeks, 1.5 mi. E of Bogalusa.",NA,NA,1978,4,20,"R.D. Suttkus & S.O. Rohmann",NA,NA,"PreservedSpecimen","",NA,"control","1974-1983","control_1974-1983",4
"56","TU","Fish",161604,35,"Hybognathus nuchalis","Cyprinidae",NA,NA,30.77583,-89.82722,NA,NA,"United States of America","Mississippi","Pearl River",NA,NA,"Pearl River along left bank across from mouth of Coburn Creek.",NA,NA,1991,10,26,"R.D. Suttkus & J.S. Suttkus",NA,NA,"PreservedSpecimen","",NA,"control","1984-1993","control_1984-1993",4
"843","TU","Fish",156651,30,"Hybognathus nuchalis","Cyprinidae",NA,NA,30.77583,-89.82722,NA,NA,"United States of America","Mississippi","Pearl River",NA,NA,"Pearl River along left bank opposite Coburn Creek.",NA,NA,1989,10,12,"R.D. Suttkus & J.H. Caruso",NA,NA,"PreservedSpecimen","",NA,"control","1984-1993","control_1984-1993",4
"26","TU","Fish",157851,117,"Hybognathus nuchalis","Cyprinidae",NA,NA,30.76528,-89.83222,NA,NA,"United States of America","Mississippi","Pearl River",NA,NA,"Pearl River along left bank opposite Bogalusa Creek.",NA,NA,1990,4,27,"R.D. Suttkus & J.H. Caruso",NA,NA,"PreservedSpecimen","",NA,"control","1984-1993","control_1984-1993",4
"826","TU","Fish",153795,79,"Hybognathus nuchalis","Cyprinidae",NA,NA,30.76528,-89.83222,NA,NA,"United States of America","Mississippi","Pearl River",NA,NA,"Pearl River along left bank opposite Bogalusa Creek.",NA,NA,1988,10,20,"R.D. Suttkus & J.H. Caruso",NA,NA,"PreservedSpecimen","",NA,"control","1984-1993","control_1984-1993",4
"844","TU","Fish",156660,60,"Hybognathus nuchalis","Cyprinidae",NA,NA,30.76528,-89.83222,NA,NA,"United States of America","Mississippi","Pearl River",NA,NA,"Pearl River along left bank opposite Bogalusa Creek.",NA,NA,1989,10,12,"R.D. Suttkus & J.H. Caruso",NA,NA,"PreservedSpecimen","",NA,"control","1984-1993","control_1984-1993",4
"204","TU","Fish",188257,69,"Hybognathus nuchalis","Cyprinidae",NA,NA,30.77611,-89.82722,NA,NA,"United States of America","Mississippi","Pearl River",NA,NA,"Pearl River along left bank opposite Bogalusa Creek.",NA,NA,1999,7,24,"R.D. & J.S. Suttkus",NA,NA,"PreservedSpecimen","",NA,"control","1994-2003","control_1994-2003",4
"108","TU","Fish",174634,27,"Hybognathus nuchalis","Cyprinidae",NA,NA,30.76222,-89.83111,NA,NA,"United States of America","Louisiana","Washington",NA,NA,"Pearl River along right bank at Richardson Landing.",NA,NA,1995,4,29,"R.D. & J.S. Suttkus",NA,NA,"PreservedSpecimen","",NA,"control","1994-2003","control_1994-2003",4
"1651","TU","Fish",184757,118,"Hybognathus nuchalis","Cyprinidae",NA,NA,30.77611,-89.82722,NA,NA,"United States of America","Mississippi","Pearl River",NA,NA,"Pearl River along left bank opposite Bogalusa Creek.",NA,NA,1997,10,12,"R.D. & J.S. Suttkus",NA,NA,"PreservedSpecimen","",NA,"control","1994-2003","control_1994-2003",4
"101","TU","Fish",172513,28,"Hybognathus nuchalis","Cyprinidae",NA,NA,30.77861,-89.82972,NA,NA,"United States of America","Mississippi","Pearl River",NA,NA,"Pearl River along right bank above Coburn Creek.",NA,NA,1995,1,14,"R.D. & J.S. Suttkus",NA,NA,"PreservedSpecimen","",NA,"control","1994-2003","control_1994-2003",4
"158","TU","Fish",184050,8,"Hybognathus nuchalis","Cyprinidae",NA,NA,30.77611,-89.82889,NA,NA,"United States of America","Mississippi","Pearl River",NA,NA,"Pearl River along right bank above Coburn Creek.",NA,NA,1997,6,28,"R.D. & J.S. Suttkus",NA,NA,"PreservedSpecimen","",NA,"control","1994-2003","control_1994-2003",4
"923","TU","Fish",198570,115,"Hybognathus nuchalis","Cyprinidae",NA,NA,30.77611,-89.82777,NA,NA,"United States of America","Mississippi","Pearl River",NA,NA,"Pearl River along left bank opposite Coburn Creek",NA,NA,2005,7,15,"R.D. & J.S. Suttkus",NA,NA,"PreservedSpecimen","",NA,"control","2004-2013","control_2004-2013",4
"901","TU","Fish",197032,99,"Hybognathus nuchalis","Cyprinidae",NA,NA,30.77611,-89.82777,NA,NA,"United States of America","Mississippi","Pearl River",NA,NA,"Pearl River along left bank opposite Coburn Creek",NA,NA,2004,4,24,"R.D. & J.S. Suttkus",NA,NA,"PreservedSpecimen","",NA,"control","2004-2013","control_2004-2013",4
"896","TU","Fish",196866,41,"Hybognathus nuchalis","Cyprinidae",NA,NA,30.76528,-89.83222,NA,NA,"United States of America","Mississippi","Pearl River",NA,NA,"Pearl River along left bank opposite mouth of Bogalusa Creek.",NA,NA,2004,1,31,"R.D. & J.S. Suttkus",NA,NA,"PreservedSpecimen","",NA,"control","2004-2013","control_2004-2013",4
"913","TU","Fish",197713,13,"Hybognathus nuchalis","Cyprinidae",NA,NA,30.77611,-89.82777,NA,NA,"United States of America","Mississippi","Pearl River",NA,NA,"Pearl River along left bank opposite Coburn Creek",NA,NA,2004,10,30,"R.D. & J.S. Suttkus",NA,NA,"PreservedSpecimen","",NA,"control","2004-2013","control_2004-2013",4
"924","TU","Fish",198578,8,"Hybognathus nuchalis","Cyprinidae",NA,NA,30.76528,-89.83222,NA,NA,"United States of America","Mississippi","Pearl River",NA,NA,"Pearl River along left bank opposite Bogalusa Creek",NA,NA,2005,4,15,"R.D. & J.S. Suttkus",NA,NA,"PreservedSpecimen","",NA,"control","2004-2013","control_2004-2013",4
"264","TU","Fish",31353,12,"Hybognathus nuchalis","Cyprinidae",NA,NA,30.75417,-89.82222,NA,NA,"United States of America","Louisiana","Washington",NA,NA,"Pearl River about River Mile 55.5, 1.7 miles ESE of Bogalusa",NA,NA,1963,5,20,"R.D. Suttkus & G.E. Gunning",NA,NA,"PreservedSpecimen","",NA,"impact","1954-1963","impact_1954-1963",4
"279","TU","Fish",31296,28,"Hybognathus nuchalis","Cyprinidae",NA,NA,30.70222,-89.84417,NA,NA,"United States of America","Louisiana","Washington",NA,NA,"Pearl River just below dam at Pools Bluff; 4 mi. S of Bogalusa.",NA,NA,1963,12,13,"R.D. Suttkus & G.E. Gunning",NA,NA,"PreservedSpecimen","",NA,"impact","1954-1963","impact_1954-1963",4
"270","TU","Fish",31288,63,"Hybognathus nuchalis","Cyprinidae",NA,NA,30.70222,-89.84417,NA,NA,"United States of America","Louisiana","Washington",NA,NA,"Pearl River just below dam at Pools Bluff; 4 mi. S of Bogalusa.",NA,NA,1963,7,12,"R.D. Suttkus & G.E. Gunning",NA,NA,"PreservedSpecimen","",NA,"impact","1954-1963","impact_1954-1963",4
"411","TU","Fish",49517,79,"Hybognathus nuchalis","Cyprinidae",NA,NA,30.70222,-89.84417,NA,NA,"United States of America","Louisiana","Washington",NA,NA,"Pearl River just below sill at Pools Bluff; 4 mi. S of Bogalusa.",NA,NA,1967,12,26,"R.D. Suttkus & J.S. Suttkus",NA,NA,"PreservedSpecimen","",NA,"impact","1964-1973","impact_1964-1973",4
"416","TU","Fish",50356,42,"Hybognathus nuchalis","Cyprinidae",NA,NA,30.70222,-89.84417,NA,NA,"United States of America","Louisiana","Washington",NA,NA,"Pearl River just below sill at Pools Bluff; 4 mi. S of Bogalusa.",NA,NA,1968,2,21,"R.D. Suttkus & G.H. Clemmer",NA,NA,"PreservedSpecimen","",NA,"impact","1964-1973","impact_1964-1973",4
"490","TU","Fish",70511,20,"Hybognathus nuchalis","Cyprinidae",NA,NA,30.705,-89.84611,NA,NA,"United States of America","Louisiana","Washington",NA,NA,"Pearl River just above Pools Bluff Sill.",NA,NA,1971,7,15,"R.D. Suttkus, B.A. Thompson & R.C. Cashner",NA,NA,"PreservedSpecimen","",NA,"impact","1964-1973","impact_1964-1973",4
"351","TU","Fish",37981,27,"Hybognathus nuchalis","Cyprinidae",NA,NA,30.70222,-89.84417,NA,NA,"United States of America","Louisiana","Washington",NA,NA,"Pearl River just below sill at Pools Bluff; 4 mi. S of Bogalusa.",NA,NA,1965,7,5,"R.D. Suttkus & G.E. Gunning",NA,NA,"PreservedSpecimen","",NA,"impact","1964-1973","impact_1964-1973",4
"322","TU","Fish",27674,9,"Hybognathus nuchalis","Cyprinidae",NA,NA,30.74055,-89.82694,NA,NA,"United States of America","Louisiana","Washington",NA,NA,"Pearl River at River Mile 54, 2.3 mi. SE of Bogalusa.",NA,NA,1965,1,15,"R.D. Suttkus & G.E. Gunning",NA,NA,"PreservedSpecimen","",NA,"impact","1964-1973","impact_1964-1973",4
"701","TU","Fish",126139,33,"Hybognathus nuchalis","Cyprinidae",NA,NA,30.74055,-89.82694,NA,NA,"United States of America","Mississippi","Pearl River",NA,NA,"Pearl River along left bank at River Mile 54.",NA,NA,1982,7,6,"R.D. Suttkus & S.O. Rohmann",NA,NA,"PreservedSpecimen","",NA,"impact","1974-1983","impact_1974-1983",4
"651","TU","Fish",115215,62,"Hybognathus nuchalis","Cyprinidae",NA,NA,30.70222,-89.84417,NA,NA,"United States of America","Louisiana","Washington",NA,NA,"Pearl River along left bank just below Pools Bluff Sill, 4 mi. S of Bogalusa.",NA,NA,1979,10,25,"R.D. Suttkus & P. Sorensen",NA,NA,"PreservedSpecimen","",NA,"impact","1974-1983","impact_1974-1983",4
"725","TU","Fish",132494,77,"Hybognathus nuchalis","Cyprinidae",NA,NA,30.74055,-89.82694,NA,NA,"United States of America","Mississippi","Pearl River",NA,NA,"Pearl River along left bank at River Mile 54.",NA,NA,1983,10,6,"R.D. Suttkus & G.E. Gunning",NA,NA,"PreservedSpecimen","",NA,"impact","1974-1983","impact_1974-1983",4
"570","TU","Fish",100406,400,"Hybognathus nuchalis","Cyprinidae",NA,NA,30.70222,-89.84417,NA,NA,"United States of America","Louisiana","Washington",NA,NA,"Pearl River along left bank just below Pools Bluff Sill, 4 mi. S of Bogalusa.",NA,NA,1976,12,10,"R.D. Suttkus, Heath & Shaffer",NA,NA,"PreservedSpecimen","",NA,"impact","1974-1983","impact_1974-1983",4
"575","TU","Fish",100905,14,"Hybognathus nuchalis","Cyprinidae",NA,NA,30.70222,-89.84417,NA,NA,"United States of America","Louisiana","Washington",NA,NA,"Pearl River along left bank just below sill at Pools Bluff, 4 mi. S of Bogalusa.",NA,NA,1977,1,19,"R.D. Suttkus & P. Sorensen",NA,NA,"PreservedSpecimen","",NA,"impact","1974-1983","impact_1974-1983",4
"762","TU","Fish",141560,74,"Hybognathus nuchalis","Cyprinidae",NA,NA,30.75667,-89.82611,NA,NA,"United States of America","Louisiana","Washington",NA,NA,"Pearl River along right bank 0.5 mi. below Richardosn Landing.",NA,NA,1985,7,1,"R.D. Suttkus & K.G. Goodfellow",NA,NA,"PreservedSpecimen","",NA,"impact","1984-1993","impact_1984-1993",4
"845","TU","Fish",156672,67,"Hybognathus nuchalis","Cyprinidae",NA,NA,30.75667,-89.82611,NA,NA,"United States of America","Louisiana","Washington",NA,NA,"Pearl River along right bank 0.5 mi. below Richardson Landing.",NA,NA,1989,10,12,"R.D. Suttkus & J.H. Caruso",NA,NA,"PreservedSpecimen","",NA,"impact","1984-1993","impact_1984-1993",4
"27","TU","Fish",157863,46,"Hybognathus nuchalis","Cyprinidae",NA,NA,30.75667,-89.82611,NA,NA,"United States of America","Louisiana","Washington",NA,NA,"Pearl River along right bank 0.5 mi. below Richardson Landing.",NA,NA,1990,4,27,"R.D. Suttkus & J.H. Caruso",NA,NA,"PreservedSpecimen","",NA,"impact","1984-1993","impact_1984-1993",4
"752","TU","Fish",139227,8,"Hybognathus nuchalis","Cyprinidae",NA,NA,30.75667,-89.82611,NA,NA,"United States of America","Louisiana","Washington",NA,NA,"Pearl River along right bank 0.5 mi. below Richardson Landing.",NA,NA,1985,1,7,"R.D. Suttkus & K.G. Goodfellow",NA,NA,"PreservedSpecimen","",NA,"impact","1984-1993","impact_1984-1993",4
"771","TU","Fish",142934,75,"Hybognathus nuchalis","Cyprinidae",NA,NA,30.70222,-89.84417,NA,NA,"United States of America","Mississippi","Pearl River",NA,NA,"Pearl River along left bank just below Pools Bluff Sill.",NA,NA,1985,10,10,"R.D. Suttkus & K.G. Goodfellow",NA,NA,"PreservedSpecimen","",NA,"impact","1984-1993","impact_1984-1993",4
"190","TU","Fish",186684,16,"Hybognathus nuchalis","Cyprinidae",NA,NA,30.70389,-89.84472,NA,NA,"United States of America","Mississippi","Pearl River",NA,NA,"Pearl River along left bank just below Pools Bluff Sill.",NA,NA,1998,10,10,"R.D. & J.S. Suttkus",NA,NA,"PreservedSpecimen","",NA,"impact","1994-2003","impact_1994-2003",4
"1521","TU","Fish",182149,28,"Hybognathus nuchalis","Cyprinidae",NA,NA,30.70389,-89.84472,NA,NA,"United States of America","Mississippi","Pearl River",NA,NA,"Pearl River along left bank just below Pools Bluff Sill.",NA,NA,1997,1,4,"R.D. & J.S. Suttkus",NA,NA,"PreservedSpecimen","",NA,"impact","1994-2003","impact_1994-2003",4
"250","TU","Fish",192995,502,"Hybognathus nuchalis","Cyprinidae",NA,NA,30.74195,-89.82528,NA,NA,"United States of America","Louisiana","Washington",NA,NA,"Pearl River along right bank at second bend above River Mile 54.",NA,NA,2001,7,21,"",NA,NA,"PreservedSpecimen","",NA,"impact","1994-2003","impact_1994-2003",4
"871","TU","Fish",194480,114,"Hybognathus nuchalis","Cyprinidae",NA,NA,30.70222,-89.84417,NA,NA,"United States of America","Mississippi","Pearl River",NA,NA,"Pearl River along left bank just below Pools Bluff Sill.",NA,NA,2002,7,13,"R.D. & J.S. Suttkus",NA,NA,"PreservedSpecimen","",NA,"impact","1994-2003","impact_1994-2003",4
"166","TU","Fish",184767,50,"Hybognathus nuchalis","Cyprinidae",NA,NA,30.75444,-89.82722,NA,NA,"United States of America","Mississippi","Pearl River",NA,NA,"Pearl River along left bank at second bend below Richardson Landing.",NA,NA,1997,10,12,"R.D. & J.S. Suttkus",NA,NA,"PreservedSpecimen","",NA,"impact","1994-2003","impact_1994-2003",4
"899","TU","Fish",196899,79,"Hybognathus nuchalis","Cyprinidae",NA,NA,30.74055,-89.82694,NA,NA,"United States of America","Mississippi","Pearl River",NA,NA,"Pearl River along left bank at River Mile 54",NA,NA,2004,1,31,"R.D. & J.S. Suttkus",NA,NA,"PreservedSpecimen","",NA,"impact","2004-2013","impact_2004-2013",4
"917","TU","Fish",197754,9,"Hybognathus nuchalis","Cyprinidae",NA,NA,30.70222,-89.84417,NA,NA,"United States of America","Mississippi","Pearl River",NA,NA,"Pearl River along left bank just below Pool Bluff Sill.",NA,NA,2004,10,30,"R.D. & J.S. Suttkus",NA,NA,"PreservedSpecimen","",NA,"impact","2004-2013","impact_2004-2013",4
"904","TU","Fish",197056,69,"Hybognathus nuchalis","Cyprinidae",NA,NA,30.74195,-89.82528,NA,NA,"United States of America","Louisiana","Washington",NA,NA,"Pearl River along right bank at second bend above River Mile 54.",NA,NA,2004,4,24,"R.D. & J.S. Suttkus",NA,NA,"PreservedSpecimen","",NA,"impact","2004-2013","impact_2004-2013",4
"916","TU","Fish",197742,23,"Hybognathus nuchalis","Cyprinidae",NA,NA,30.74055,-89.82694,NA,NA,"United States of America","Mississippi","Pearl River",NA,NA,"Pearl River along left bank at River Mile 54",NA,NA,2004,10,30,"R.D. & J.S. Suttkus",NA,NA,"PreservedSpecimen","",NA,"impact","2004-2013","impact_2004-2013",4
"925","TU","Fish",198587,90,"Hybognathus nuchalis","Cyprinidae",NA,NA,30.75444,-89.82722,NA,NA,"United States of America","Mississippi","Pearl River",NA,NA,"Pearl River along left bank at 2nd bend below Richardson Ldg.",NA,NA,2005,7,15,"R.D. & J.S. Suttkus",NA,NA,"PreservedSpecimen","",NA,"impact","2004-2013","impact_2004-2013",4
"79","TU","Fish",31181,4,"Ictalurus punctatus","Ictaluridae",NA,NA,30.76805,-89.83083,NA,NA,"United States of America","Louisiana","Washington",NA,NA,"Pearl River between mouth of Coburn & Bogalusa Creeks; 1.4 mile E of Hwy. 7 in Bogalusa",NA,NA,1963,5,19,"R.D. Suttkus & G.E. Gunning",NA,NA,"PreservedSpecimen","",NA,"control","1954-1963","control_1954-1963",2
"942","TU","Fish",31060,35,"Ictalurus punctatus","Ictaluridae",NA,NA,30.76222,-89.83111,NA,NA,"United States of America","Louisiana","Washington",NA,NA,"Pearl River at River Mile 53.7, 2.3 miles SE of Bogalusa.",NA,NA,1963,8,30,"R.D. Suttkus & G.E. Gunning",NA,NA,"PreservedSpecimen","",NA,"control","1954-1963","control_1954-1963",2
"132","TU","Fish",34760,9,"Ictalurus punctatus","Ictaluridae",NA,NA,30.76805,-89.83083,NA,NA,"United States of America","Louisiana","Washington",NA,NA,"Pearl River between Coburn & Bogalusa Creeks, 1.5 mi. E of Hwy. 7 in Bogalusa.",NA,NA,1964,10,16,"R.D. Suttkus & G.E. Gunning",NA,NA,"PreservedSpecimen","",NA,"control","1964-1973","control_1964-1973",2
"181","TU","Fish",40616,7,"Ictalurus punctatus","Ictaluridae",NA,NA,30.77861,-89.82972,NA,NA,"United States of America","Louisiana","Washington",NA,NA,"Pearl River just above Coburn Creek; 1.4 mi. E of Bogalusa - Stat. #1.",NA,NA,1966,4,22,"R.D. Suttkus & G.E. Gunning",NA,NA,"PreservedSpecimen","",NA,"control","1964-1973","control_1964-1973",2
"271","TU","Fish",68158,10,"Ictalurus punctatus","Ictaluridae",NA,NA,30.77472,-89.82806,NA,NA,"United States of America","Louisiana","Washington",NA,NA,"Pearl River just below Coburn Creek, 1.5 mi. E of Bogalusa - Fish Stat. #1.",NA,NA,1971,1,25,"R.D. Suttkus & G.E. Gunning",NA,NA,"PreservedSpecimen","",NA,"control","1964-1973","control_1964-1973",2
"1581","TU","Fish",37883,33,"Ictalurus punctatus","Ictaluridae",NA,NA,30.76805,-89.83083,NA,NA,"United States of America","Louisiana","Washington",NA,NA,"Pearl River between Coburn & Bogalusa Creeks; 1.5 mi. E of Bogalusa.",NA,NA,1965,6,9,"R.D. Suttkus & G.E. Gunning",NA,NA,"PreservedSpecimen","",NA,"control","1964-1973","control_1964-1973",2
"246","TU","Fish",58050,5,"Ictalurus punctatus","Ictaluridae",NA,NA,30.77861,-89.82972,NA,NA,"United States of America","Louisiana","Washington",NA,NA,"Pearl River just above Coburn Creek, 1.5 mi. E of Bogalusa.",NA,NA,1969,7,14,"R.D. Suttkus & Thompson",NA,NA,"PreservedSpecimen","",NA,"control","1964-1973","control_1964-1973",2
"3461","TU","Fish",108464,200,"Ictalurus punctatus","Ictaluridae",NA,NA,30.77861,-89.82972,NA,NA,"United States of America","Louisiana","Washington",NA,NA,"Pearl River along left bank just above Coburn Creek, 1.5 mi. E of Bogalusa.",NA,NA,1978,7,19,"R.D. Suttkus & P. Sorensen",NA,NA,"PreservedSpecimen","",NA,"control","1974-1983","control_1974-1983",2
"361","TU","Fish",115142,113,"Ictalurus punctatus","Ictaluridae",NA,NA,30.76805,-89.83083,NA,NA,"United States of America","Louisiana","Washington",NA,NA,"Pearl River along right bank between Coburn & Bogalusa Creeks, 1.5 mi. E of Bogalusa.",NA,NA,1979,10,24,"R.D. Suttkus & G.E. Gunning",NA,NA,"PreservedSpecimen","",NA,"control","1974-1983","control_1974-1983",2
"353","TU","Fish",109088,82,"Ictalurus punctatus","Ictaluridae",NA,NA,30.76805,-89.83083,NA,NA,"United States of America","Louisiana","Washington",NA,NA,"Pearl River along right bank between Coburn & Bogalusa Creeks, 1.5 mi. E of Bogalusa.",NA,NA,1978,8,29,"R.D. Suttkus & S.O. Rohmann",NA,NA,"PreservedSpecimen","",NA,"control","1974-1983","control_1974-1983",2
"352","TU","Fish",109076,64,"Ictalurus punctatus","Ictaluridae",NA,NA,30.77861,-89.82972,NA,NA,"United States of America","Louisiana","Washington",NA,NA,"Pearl River along left bank just above Coburn Creek; 1.5 mi. E of Bogalusa.",NA,NA,1978,8,29,"R.D. Suttkus & S.O. Rohmann",NA,NA,"PreservedSpecimen","",NA,"control","1974-1983","control_1974-1983",2
"364","TU","Fish",118276,10,"Ictalurus punctatus","Ictaluridae",NA,NA,30.76805,-89.83083,NA,NA,"United States of America","Louisiana","Washington",NA,NA,"Pearl River along right bank between Coburn & Bogalusa Creeks, 1.5 miles SE of Bogalusa.",NA,NA,1980,10,23,"R.D. Suttkus & G.E. Gunning",NA,NA,"PreservedSpecimen","",NA,"control","1974-1983","control_1974-1983",2
"275","TU","Fish",157299,10,"Ictalurus punctatus","Ictaluridae",NA,NA,30.77583,-89.82722,NA,NA,"United States of America","Mississippi","Pearl River",NA,NA,"Pearl River along left bank opposite Coburn Creek.",NA,NA,1990,1,25,"R.D. Suttkus & J.H. Caruso",NA,NA,"PreservedSpecimen","",NA,"control","1984-1993","control_1984-1993",2
"321","TU","Fish",159967,11,"Ictalurus punctatus","Ictaluridae",NA,NA,30.77583,-89.82722,NA,NA,"United States of America","Mississippi","Pearl River",NA,NA,"Pearl River along left bank opposite Coburn Creek.",NA,NA,1991,1,3,"R.D. Suttkus & J.H. Caruso",NA,NA,"PreservedSpecimen","",NA,"control","1984-1993","control_1984-1993",2
"391","TU","Fish",147855,17,"Ictalurus punctatus","Ictaluridae",NA,NA,30.76528,-89.83222,NA,NA,"United States of America","Mississippi","Pearl River",NA,NA,"Pearl River along left bank opposite Bogalusa Creek.",NA,NA,1987,1,22,"R.D. Suttkus & J.H. Caruso",NA,NA,"PreservedSpecimen","",NA,"control","1984-1993","control_1984-1993",2
"302","TU","Fish",157351,4,"Ictalurus punctatus","Ictaluridae",NA,NA,30.70222,-89.84417,NA,NA,"United States of America","Mississippi","Pearl River",NA,NA,"Pearl River along left bank just below Pools Bluff Sill.",NA,NA,1990,1,25,"R.D. Suttkus & J.H. Caruso",NA,NA,"PreservedSpecimen","",NA,"impact","1984-1993","impact_1984-1993",2
"852","TU","Fish",31146,79,"Ictalurus punctatus","Ictaluridae",NA,NA,30.75667,-89.82611,NA,NA,"United States of America","Louisiana","Washington",NA,NA,"Pearl River 0.5 mi. downstream from Richardson Landing; 1.5 mi. SE of Bogalusa.",NA,NA,1963,6,23,"R.D. Suttkus & G.E. Gunning",NA,NA,"PreservedSpecimen","",NA,"impact","1954-1963","impact_1954-1963",2
"811","TU","Fish",31177,10,"Ictalurus punctatus","Ictaluridae",NA,NA,30.75667,-89.82611,NA,NA,"United States of America","Louisiana","Washington",NA,NA,"Pearl River 0.5 mi. downstream from Richardson Landing; 1.5 miles SE of Bogalusa.",NA,NA,1963,5,20,"R.D. Suttkus & G.E. Gunning",NA,NA,"PreservedSpecimen","",NA,"impact","1954-1963","impact_1954-1963",2
"905","TU","Fish",31267,24,"Ictalurus punctatus","Ictaluridae",NA,NA,30.74,-89.82777,NA,NA,"United States of America","Louisiana","Washington",NA,NA,"Pearl River at River Mile 53.7; 2.3 miles SE of Bogalusa",NA,NA,1963,7,11,"R.D. Suttkus & G.E. Gunning",NA,NA,"PreservedSpecimen","",NA,"impact","1954-1963","impact_1954-1963",2
"95","TU","Fish",29940,10,"Ictalurus punctatus","Ictaluridae",NA,NA,30.70222,-89.84417,NA,NA,"United States of America","Louisiana","Washington",NA,NA,"Pearl River just below sill at Pools Bluff Sill (4 mi.) SE of Bogalusa.",NA,NA,1963,8,31,"R.D. Suttkus & G.E. Gunning",NA,NA,"PreservedSpecimen","",NA,"impact","1954-1963","impact_1954-1963",2
"212","TU","Fish",31829,10,"Ictalurus punctatus","Ictaluridae",NA,NA,30.70222,-89.84417,NA,NA,"United States of America","Louisiana","Washington",NA,NA,"Pearl River just below dam at Pools Bluff; 4 mi. S of Bogalusa.",NA,NA,1963,11,15,"G.E. Gunning & J. Shireman",NA,NA,"PreservedSpecimen","",NA,"impact","1954-1963","impact_1954-1963",2
"274","TU","Fish",68176,48,"Ictalurus punctatus","Ictaluridae",NA,NA,30.74055,-89.82694,NA,NA,"United States of America","Louisiana","Washington",NA,NA,"Pearl River at River Mile 54, 2.3 mi. SE of Bogalusa.",NA,NA,1971,1,25,"R.D. Suttkus & G.E. Gunning",NA,NA,"PreservedSpecimen","",NA,"impact","1964-1973","impact_1964-1973",2
"229","TU","Fish",53103,53,"Ictalurus punctatus","Ictaluridae",NA,NA,30.70222,-89.84417,NA,NA,"United States of America","Louisiana","Washington",NA,NA,"Pearl River just below Pools Bluff Sill; 4 mi. S of Bogalusa.",NA,NA,1968,7,18,"G.E. Gunning & Environmental Bio. Class",NA,NA,"PreservedSpecimen","",NA,"impact","1964-1973","impact_1964-1973",2
"4","TU","Fish",63825,24,"Ictalurus punctatus","Ictaluridae",NA,NA,30.70222,-89.84417,NA,NA,"United States of America","Louisiana","Washington",NA,NA,"Pearl River just below Pools Bluff Sill, 4 mi. S of Bogalusa - Fish Stat. #6.",NA,NA,1970,7,10,"B.A. Thompson, G.E. Gunning & Cashner",NA,NA,"PreservedSpecimen","",NA,"impact","1964-1973","impact_1964-1973",2
"180","TU","Fish",40125,10,"Ictalurus punctatus","Ictaluridae",NA,NA,30.75667,-89.82611,NA,NA,"United States of America","Louisiana","Washington",NA,NA,"Pearl River 0.5 mi. below Richardson Landing; 1.5 mi. SE of Bogalusa - Stat. #3.",NA,NA,1966,3,17,"R.D. Suttkus & C.D. Barbour",NA,NA,"PreservedSpecimen","",NA,"impact","1964-1973","impact_1964-1973",2
"125","TU","Fish",33742,19,"Ictalurus punctatus","Ictaluridae",NA,NA,30.70222,-89.84417,NA,NA,"United States of America","Louisiana","Washington",NA,NA,"Pearl River just below sill at Pools Bluff; 4 mi. S of Bogalusa.",NA,NA,1964,8,11,"R.D. Suttkus & G.E. Gunning",NA,NA,"PreservedSpecimen","",NA,"impact","1964-1973","impact_1964-1973",2
"358","TU","Fish",109950,11,"Ictalurus punctatus","Ictaluridae",NA,NA,30.705,-89.84611,NA,NA,"United States of America","Louisiana","Washington",NA,NA,"Pearl River along left bank just above Pools Bluff Sill; 4 mi. S of Bogalusa.",NA,NA,1978,10,25,"R.D. Suttkus & P. Sorensen",NA,NA,"PreservedSpecimen","",NA,"impact","1974-1983","impact_1974-1983",2
"366","TU","Fish",118300,24,"Ictalurus punctatus","Ictaluridae",NA,NA,30.74055,-89.82694,NA,NA,"United States of America","Louisiana","Washington",NA,NA,"Pearl River along left bank at River Mile 54; 2.3 mi. SE of Bogalusa.",NA,NA,1980,10,23,"R.D. Suttkus & G.E. Gunning",NA,NA,"PreservedSpecimen","",NA,"impact","1974-1983","impact_1974-1983",2
"334","TU","Fish",105446,5,"Ictalurus punctatus","Ictaluridae",NA,NA,30.705,-89.84611,NA,NA,"United States of America","Louisiana","Washington",NA,NA,"Pearl River along left bank just above Pools Bluff Sill, 4 mi. S of Bogalusa.",NA,NA,1977,12,19,"G.E. Gunning & D.C. Heins",NA,NA,"PreservedSpecimen","",NA,"impact","1974-1983","impact_1974-1983",2
"323","TU","Fish",99532,11,"Ictalurus punctatus","Ictaluridae",NA,NA,30.70222,-89.84417,NA,NA,"United States of America","Louisiana","Washington",NA,NA,"Pearl River along left bank just below Pools Bluff Sill, 4 mi. S of Bogalusa.",NA,NA,1976,10,13,"R.D. Suttkus & P. Sorensen",NA,NA,"PreservedSpecimen","",NA,"impact","1974-1983","impact_1974-1983",2
"367","TU","Fish",118311,43,"Ictalurus punctatus","Ictaluridae",NA,NA,30.705,-89.84611,NA,NA,"United States of America","Louisiana","Washington",NA,NA,"Pearl River along left bank just above Pools Bluff Sill; 4 mi. S of Bogalusa.",NA,NA,1980,10,23,"R.D. Suttkus & G.E. Gunning",NA,NA,"PreservedSpecimen","",NA,"impact","1974-1983","impact_1974-1983",2
"390","TU","Fish",146787,14,"Ictalurus punctatus","Ictaluridae",NA,NA,30.70222,-89.84417,NA,NA,"United States of America","Mississippi","Pearl River",NA,NA,"Pearl River along left bank just below Pools Bluff Sill.",NA,NA,1986,10,9,"R.D. Suttkus & J.H. Caruso",NA,NA,"PreservedSpecimen","",NA,"impact","1984-1993","impact_1984-1993",2
"35","TU","Fish",160020,67,"Ictalurus punctatus","Ictaluridae",NA,NA,30.705,-89.84611,NA,NA,"United States of America","Mississippi","Pearl River",NA,NA,"Pearl River along left bank just above Pools Bluff Sill.",NA,NA,1991,1,3,"R.D. Suttkus & J.H. Caruso",NA,NA,"PreservedSpecimen","",NA,"impact","1984-1993","impact_1984-1993",2
"379","TU","Fish",136244,15,"Ictalurus punctatus","Ictaluridae",NA,NA,30.74055,-89.82694,NA,NA,"United States of America","Mississippi","Pearl River",NA,NA,"Pearl River along left bank at River Mile 54.",NA,NA,1984,7,17,"R.D. Suttkus & V.C. Trau",NA,NA,"PreservedSpecimen","",NA,"impact","1984-1993","impact_1984-1993",2
"301","TU","Fish",157351,4,"Ictalurus punctatus","Ictaluridae",NA,NA,30.70222,-89.84417,NA,NA,"United States of America","Mississippi","Pearl River",NA,NA,"Pearl River along left bank just below Pools Bluff Sill.",NA,NA,1990,1,25,"R.D. Suttkus & J.H. Caruso",NA,NA,"PreservedSpecimen","",NA,"impact","1984-1993","impact_1984-1993",2
"392","TU","Fish",147873,16,"Ictalurus punctatus","Ictaluridae",NA,NA,30.74055,-89.82694,NA,NA,"United States of America","Mississippi","Pearl River",NA,NA,"Pearl River along left bank at River Mile 54; or 2.3 mi. SE of Bogalusa.",NA,NA,1987,1,22,"R.D. Suttkus & J.H. Caruso",NA,NA,"PreservedSpecimen","",NA,"impact","1984-1993","impact_1984-1993",2
"75","TU","Fish",190621,10,"Ictalurus punctatus","Ictaluridae",NA,NA,30.75444,-89.82722,NA,NA,"United States of America","Mississippi","Pearl River",NA,NA,"Pearl River along left bank at second bend below Richardson Landing.",NA,NA,2000,4,7,"",NA,NA,"PreservedSpecimen","",NA,"impact","1994-2003","impact_1994-2003",2
"561","TU","Fish",182143,4,"Ictalurus punctatus","Ictaluridae",NA,NA,30.73694,-89.82694,NA,NA,"United States of America","Mississippi","Pearl River",NA,NA,"Pearl River along right bank at River Mile 54.",NA,NA,1997,1,4,"R.D. & J.S. Suttkus",NA,NA,"PreservedSpecimen","",NA,"impact","1994-2003","impact_1994-2003",2
"61","TU","Fish",185384,6,"Ictalurus punctatus","Ictaluridae",NA,NA,30.75444,-89.82722,NA,NA,"United States of America","Mississippi","Pearl River",NA,NA,"Pearl River along left bank at second bend below Richardson Ldg.",NA,NA,1998,1,24,"R.D. & J.S. Suttkus",NA,NA,"PreservedSpecimen","",NA,"impact","1994-2003","impact_1994-2003",2
"406","TU","Fish",193706,13,"Ictalurus punctatus","Ictaluridae",NA,NA,30.74055,-89.82694,NA,NA,"United States of America","Mississippi","Pearl River",NA,NA,"Pearl River along left bank at River Mile 54",NA,NA,2002,1,26,"",NA,NA,"PreservedSpecimen","",NA,"impact","1994-2003","impact_1994-2003",2
"143","TU","Fish",31614,57,"Notropis atherinoides","Cyprinidae",NA,NA,30.77861,-89.82972,NA,NA,"United States of America","Louisiana","Washington",NA,NA,"Pearl River just above mouth of Coburn Creek; 1.5 mi. E of Hwy. 7 in Bogalusa.",NA,NA,1963,6,14,"G.E. Gunning & J. Shireman",NA,NA,"PreservedSpecimen","",NA,"control","1954-1963","control_1954-1963",4
"307","TU","Fish",30999,18,"Notropis atherinoides","Cyprinidae",NA,NA,30.77861,-89.82972,NA,NA,"United States of America","Louisiana","Washington",NA,NA,"Pearl River just above mouth of Coburn Creek, 1.5 miles E of Hwy. 7 in Bogalusa (left bank).",NA,NA,1963,12,12,"R.D. Suttkus & G.E. Gunning",NA,NA,"PreservedSpecimen","",NA,"control","1954-1963","control_1954-1963",4
"485","TU","Fish",75711,16,"Notropis atherinoides","Cyprinidae",NA,NA,30.77861,-89.82972,NA,NA,"United States of America","Louisiana","Washington",NA,NA,"Pearl River just above Coburn Creek; 1.5 mi. E of Bogalusa - Stat. #1.",NA,NA,1972,1,25,"R.D. Suttkus & Cashner",NA,NA,"PreservedSpecimen","",NA,"control","1964-1973","control_1964-1973",4
"470","TU","Fish",68695,11,"Notropis atherinoides","Cyprinidae",NA,NA,30.77861,-89.82972,NA,NA,"United States of America","Louisiana","Washington",NA,NA,"Pearl River just above Coburn Creek, 1.5 mi. E of Bogalusa; Fish Stat. #1.",NA,NA,1971,4,20,"R.D. Suttkus & B.A. Thompson",NA,NA,"PreservedSpecimen","",NA,"control","1964-1973","control_1964-1973",4
"452","TU","Fish",58044,40,"Notropis atherinoides","Cyprinidae",NA,NA,30.77861,-89.82972,NA,NA,"United States of America","Louisiana","Washington",NA,NA,"Pearl River just above Coburn Creek, 1.5 mi. E of Bogalusa.",NA,NA,1969,7,14,"R.D. Suttkus & Thompson",NA,NA,"PreservedSpecimen","",NA,"control","1964-1973","control_1964-1973",4
"502","TU","Fish",83909,55,"Notropis atherinoides","Cyprinidae",NA,NA,30.77861,-89.82972,NA,NA,"United States of America","Louisiana","Washington",NA,NA,"Pearl River just above mouth of Coburn Creek - Stat. #1.",NA,NA,1973,10,16,"R.D. Suttkus & B.A. Thompson",NA,NA,"PreservedSpecimen","",NA,"control","1964-1973","control_1964-1973",4
"474","TU","Fish",70494,31,"Notropis atherinoides","Cyprinidae",NA,NA,30.77861,-89.82972,NA,NA,"United States of America","Louisiana","Washington",NA,NA,"Pearl River just above mouth of Coburn Creek - Fish Stat. #1.",NA,NA,1971,7,15,"R.D. Suttkus & B.A. Thompson",NA,NA,"PreservedSpecimen","",NA,"control","1964-1973","control_1964-1973",4
"24","TU","Fish",106306,25,"Notropis atherinoides","Cyprinidae",NA,NA,30.76805,-89.83083,NA,NA,"United States of America","Louisiana","Washington",NA,NA,"Pearl River along right bank between mouth of Coburn & Bogalusa Creeks, 1.5 mi. E of Bogalusa.",NA,NA,1978,3,23,"S.O. Rohmann & G.E. Gunning",NA,NA,"PreservedSpecimen","",NA,"control","1974-1983","control_1974-1983",4
"679","TU","Fish",126094,93,"Notropis atherinoides","Cyprinidae",NA,NA,30.77583,-89.82722,NA,NA,"United States of America","Mississippi","Pearl River",NA,NA,"Pearl River along left bank opposite mouth of Coburn Creek.",NA,NA,1982,7,6,"R.D. Suttkus & S.O. Rohmann",NA,NA,"PreservedSpecimen","",NA,"control","1974-1983","control_1974-1983",4
"598","TU","Fish",106097,8,"Notropis atherinoides","Cyprinidae",NA,NA,30.76805,-89.83083,NA,NA,"United States of America","Louisiana","Washington",NA,NA,"Pearl River along right bank between mouth of Coburn & Bogalusa Creeks, 1.5 mi. E of Bogalusa.",NA,NA,1978,2,23,"Rohmann & G.E. Gunning",NA,NA,"PreservedSpecimen","",NA,"control","1974-1983","control_1974-1983",4
"513","TU","Fish",88427,30,"Notropis atherinoides","Cyprinidae",NA,NA,30.77861,-89.82972,NA,NA,"United States of America","Louisiana","Washington",NA,NA,"Pearl River just above Coburn Creek; 1.5 mi. E of Bogalusa.",NA,NA,1974,7,9,"R.D. Suttkus & D.C. Heins",NA,NA,"PreservedSpecimen","",NA,"control","1974-1983","control_1974-1983",4
"649","TU","Fish",120211,14,"Notropis atherinoides","Cyprinidae",NA,NA,30.77861,-89.82972,NA,NA,"United States of America","Louisiana","Washington",NA,NA,"Pearl River along left bank above mouth of Coburn Creek, 1.5 mi. E of Bogalusa.",NA,NA,1981,1,22,"R.D. Suttkus & P.Y. Sorensen",NA,NA,"PreservedSpecimen","",NA,"control","1974-1983","control_1974-1983",4
"98","TU","Fish",167776,12,"Notropis atherinoides","Cyprinidae",NA,NA,30.76528,-89.83222,NA,NA,"United States of America","Mississippi","Pearl River",NA,NA,"Pearl River along left bank across from Bogalusa Creek",NA,NA,1993,10,23,"R.D. Suttkus & J.S. Suttkus",NA,NA,"PreservedSpecimen","",NA,"control","1984-1993","control_1984-1993",4
"551","TU","Fish",161594,67,"Notropis atherinoides","Cyprinidae",NA,NA,30.7825,-89.82027,NA,NA,"United States of America","Louisiana","Washington",NA,NA,"Pearl River along right bank 1.0 mi. below Hwy. 10.",NA,NA,1991,10,26,"R.D. Suttkus & J.S. Suttkus",NA,NA,"PreservedSpecimen","",NA,"control","1984-1993","control_1984-1993",4
"794","TU","Fish",152904,34,"Notropis atherinoides","Cyprinidae",NA,NA,30.76528,-89.83222,NA,NA,"United States of America","Mississippi","Pearl River",NA,NA,"Pearl River along left bank opposite Bogalusa Creek.",NA,NA,1988,7,21,"R.D. Suttkus & J.H. Caruso",NA,NA,"PreservedSpecimen","",NA,"control","1984-1993","control_1984-1993",4
"812","TU","Fish",155403,77,"Notropis atherinoides","Cyprinidae",NA,NA,30.7825,-89.82027,NA,NA,"United States of America","Louisiana","Washington",NA,NA,"Pearl River along right bank 1.0 mi. below Hwy. 26.",NA,NA,1989,7,6,"R.D. Suttkus & J.H. Caruso",NA,NA,"PreservedSpecimen","",NA,"control","1984-1993","control_1984-1993",4
"792","TU","Fish",152883,18,"Notropis atherinoides","Cyprinidae",NA,NA,30.7825,-89.82027,NA,NA,"United States of America","Mississippi","Pearl River",NA,NA,"Pearl River along left bank 1.0 mi. below Hwy. 26.",NA,NA,1988,7,21,"R.D. Suttkus & J.H. Caruso",NA,NA,"PreservedSpecimen","",NA,"control","1984-1993","control_1984-1993",4
"300","TU","Fish",193438,24,"Notropis atherinoides","Cyprinidae",NA,NA,30.76528,-89.83222,NA,NA,"United States of America","Mississippi","Pearl River",NA,NA,"Pearl River along left bank opposite Bogalusa Creek",NA,NA,2001,10,7,"",NA,NA,"PreservedSpecimen","",NA,"control","1994-2003","control_1994-2003",4
"134","TU","Fish",175612,47,"Notropis atherinoides","Cyprinidae",NA,NA,30.76528,-89.83222,NA,NA,"United States of America","Mississippi","Pearl River",NA,NA,"Pearl River along left bank opposite Bogalusa Creek.",NA,NA,1995,7,29,"R.D. & J.S. Suttkus",NA,NA,"PreservedSpecimen","",NA,"control","1994-2003","control_1994-2003",4
"1302","TU","Fish",174635,13,"Notropis atherinoides","Cyprinidae",NA,NA,30.76222,-89.83111,NA,NA,"United States of America","Louisiana","Washington",NA,NA,"Pearl River along right bank at Richardson Landing.",NA,NA,1995,4,29,"R.D. & J.S. Suttkus",NA,NA,"PreservedSpecimen","",NA,"control","1994-2003","control_1994-2003",4
"109","TU","Fish",170156,48,"Notropis atherinoides","Cyprinidae",NA,NA,30.76528,-89.83222,NA,NA,"United States of America","Mississippi","Pearl River",NA,NA,"Pearl River along left bank opposite Bogalusa Creek.",NA,NA,1994,7,9,"R.D. Suttkus & J.S. Suttkus",NA,NA,"PreservedSpecimen","",NA,"control","1994-2003","control_1994-2003",4
"2131","TU","Fish",186210,127,"Notropis atherinoides","Cyprinidae",NA,NA,30.77611,-89.82722,NA,NA,"United States of America","Mississippi","Pearl River",NA,NA,"Pearl River along left bank opposite Bogalusa Creek.",NA,NA,1998,7,18,"R.D. & J.S. Suttkus",NA,NA,"PreservedSpecimen","",NA,"control","1994-2003","control_1994-2003",4
"881","TU","Fish",197207,98,"Notropis atherinoides","Cyprinidae",NA,NA,30.77611,-89.82777,NA,NA,"United States of America","Mississippi","Pearl River",NA,NA,"Pearl River along left bank opposite Coburn Creek",NA,NA,2004,7,17,"R.D. & J. S. Suttkus",NA,NA,"PreservedSpecimen","",NA,"control","2004-2013","control_2004-2013",4
"882","TU","Fish",197225,72,"Notropis atherinoides","Cyprinidae",NA,NA,30.76528,-89.83222,NA,NA,"United States of America","Mississippi","Pearl River",NA,NA,"Pearl River along left bank opposite Bogalusa Creek",NA,NA,2004,7,17,"R.D. & J.S. Suttkus",NA,NA,"PreservedSpecimen","",NA,"control","2004-2013","control_2004-2013",4
"8711","TU","Fish",196843,15,"Notropis atherinoides","Cyprinidae",NA,NA,30.7825,-89.82027,NA,NA,"United States of America","Louisiana","Washington",NA,NA,"Pearl River along right bank, 1 mi. below LA Hwy 10.",NA,NA,2004,1,31,"R.D. & J.S. Suttkus",NA,NA,"PreservedSpecimen","",NA,"control","2004-2013","control_2004-2013",4
"872","TU","Fish",196868,10,"Notropis atherinoides","Cyprinidae",NA,NA,30.76528,-89.83222,NA,NA,"United States of America","Mississippi","Pearl River",NA,NA,"Pearl River along left bank opposite mouth of Bogalusa Creek.",NA,NA,2004,1,31,"R.D. & J.S. Suttkus",NA,NA,"PreservedSpecimen","",NA,"control","2004-2013","control_2004-2013",4
"9041","TU","Fish",198579,17,"Notropis atherinoides","Cyprinidae",NA,NA,30.76528,-89.83222,NA,NA,"United States of America","Mississippi","Pearl River",NA,NA,"Pearl River along left bank opposite Bogalusa Creek",NA,NA,2005,4,15,"R.D. & J.S. Suttkus",NA,NA,"PreservedSpecimen","",NA,"control","2004-2013","control_2004-2013",4
"308","TU","Fish",31291,10,"Notropis atherinoides","Cyprinidae",NA,NA,30.70222,-89.84417,NA,NA,"United States of America","Louisiana","Washington",NA,NA,"Pearl River just below dam at Pools Bluff; 4 mi. S of Bogalusa.",NA,NA,1963,12,13,"R.D. Suttkus & G.E. Gunning",NA,NA,"PreservedSpecimen","",NA,"impact","1954-1963","impact_1954-1963",4
"304","TU","Fish",31124,75,"Notropis atherinoides","Cyprinidae",NA,NA,30.70222,-89.84417,NA,NA,"United States of America","Louisiana","Washington",NA,NA,"Pearl River just below dam at Pools Bluff Sill; 4 mi. S of Bogalusa.",NA,NA,1963,4,26,"R.D. Suttkus & G.E. Gunning",NA,NA,"PreservedSpecimen","",NA,"impact","1954-1963","impact_1954-1963",4
"4061","TU","Fish",44546,89,"Notropis atherinoides","Cyprinidae",NA,NA,30.70222,-89.84417,NA,NA,"United States of America","Louisiana","Washington",NA,NA,"Pearl River just below Pools Bluff Sill; 4 mi. S of Bogalusa.",NA,NA,1967,3,21,"R.D. Suttkus & G.H. Clemmer",NA,NA,"PreservedSpecimen","",NA,"impact","1964-1973","impact_1964-1973",4
"438","TU","Fish",55831,590,"Notropis atherinoides","Cyprinidae",NA,NA,30.70222,-89.84417,NA,NA,"United States of America","Louisiana","Washington",NA,NA,"Pearl River just below sill at Pools Bluff; 4 mi. S of Bogalusa.",NA,NA,1968,12,15,"R.D. Suttkus & Thompson",NA,NA,"PreservedSpecimen","",NA,"impact","1964-1973","impact_1964-1973",4
"487","TU","Fish",75733,17,"Notropis atherinoides","Cyprinidae",NA,NA,30.74055,-89.82694,NA,NA,"United States of America","Louisiana","Washington",NA,NA,"Pearl River at River Mile 54, 2.3 mi. SE of Bogalusa - Stat. #4.",NA,NA,1972,1,25,"R.D. Suttkus & Cashner",NA,NA,"PreservedSpecimen","",NA,"impact","1964-1973","impact_1964-1973",4
"387","TU","Fish",41867,66,"Notropis atherinoides","Cyprinidae",NA,NA,30.75667,-89.82611,NA,NA,"United States of America","Louisiana","Washington",NA,NA,"Pearl River 0.5 mi. below Richardson Landing; 1.5 mi. SE of Bogalusa - Fish Stat. #3.",NA,NA,1966,10,17,"R.D. Suttkus & G.E. Gunning",NA,NA,"PreservedSpecimen","",NA,"impact","1964-1973","impact_1964-1973",4
"4161","TU","Fish",49057,44,"Notropis atherinoides","Cyprinidae",NA,NA,30.70222,-89.84417,NA,NA,"United States of America","Louisiana","Washington",NA,NA,"Pearl River just below sill at Pools Bluff; 4 mi. S of Bogalusa.",NA,NA,1967,12,7,"R.D. Suttkus , Laska & Suttkus",NA,NA,"PreservedSpecimen","",NA,"impact","1964-1973","impact_1964-1973",4
"704","TU","Fish",132490,12,"Notropis atherinoides","Cyprinidae",NA,NA,30.705,-89.84611,NA,NA,"United States of America","Mississippi","Pearl River",NA,NA,"Pearl River along left bank just above Pools Bluff Sill.",NA,NA,1983,10,6,"R.D. Suttkus & G.E. Gunning",NA,NA,"PreservedSpecimen","",NA,"impact","1974-1983","impact_1974-1983",4
"644","TU","Fish",118284,53,"Notropis atherinoides","Cyprinidae",NA,NA,30.75667,-89.82611,NA,NA,"United States of America","Louisiana","Washington",NA,NA,"Pearl River along right bank 0.5 mi. below Richardson Landing, 1.5 miles SE of Bogalusa.",NA,NA,1980,10,23,"R.D. Suttkus & G.E. Gunning",NA,NA,"PreservedSpecimen","",NA,"impact","1974-1983","impact_1974-1983",4
"579","TU","Fish",104231,27,"Notropis atherinoides","Cyprinidae",NA,NA,30.75361,-89.82639,NA,NA,"United States of America","Louisiana","Washington",NA,NA,"Pearl River along left bank 0.8 mi. below Richardson Landing.",NA,NA,1977,10,19,"R.D. Suttkus & P. Sorensen",NA,NA,"PreservedSpecimen","",NA,"impact","1974-1983","impact_1974-1983",4
"669","TU","Fish",123317,9,"Notropis atherinoides","Cyprinidae",NA,NA,30.75667,-89.82611,NA,NA,"United States of America","Louisiana","Washington",NA,NA,"Pearl River along right bank 0.5 mi. below Richardson Landing 1.5 mi. SE of Bogalusa.",NA,NA,1981,10,22,"R.D. Suttkus & S.O. Rohmann",NA,NA,"PreservedSpecimen","",NA,"impact","1974-1983","impact_1974-1983",4
"665","TU","Fish",122147,108,"Notropis atherinoides","Cyprinidae",NA,NA,30.70222,-89.84417,NA,NA,"United States of America","Louisiana","Washington",NA,NA,"Pearl River along left bank just below Pools Bluff Sill; 4 mi. S of Bogalusa.",NA,NA,1981,7,8,"R.D. Suttkus & S.O. Rohmann",NA,NA,"PreservedSpecimen","",NA,"impact","1974-1983","impact_1974-1983",4
"744","TU","Fish",140330,18,"Notropis atherinoides","Cyprinidae",NA,NA,30.74055,-89.82694,NA,NA,"United States of America","Mississippi","Pearl River",NA,NA,"Pearl River along left bank at River Mile 54.",NA,NA,1985,4,25,"R.D. Suttkus & K.G. Goodfellow",NA,NA,"PreservedSpecimen","",NA,"impact","1984-1993","impact_1984-1993",4
"36","TU","Fish",158597,20,"Notropis atherinoides","Cyprinidae",NA,NA,30.705,-89.84611,NA,NA,"United States of America","Mississippi","Pearl River",NA,NA,"Pearl River along left bank just above Pools Bluff Sill.",NA,NA,1990,7,6,"R.D. Suttkus & J.H. Caruso",NA,NA,"PreservedSpecimen","",NA,"impact","1984-1993","impact_1984-1993",4
"991","TU","Fish",167786,8,"Notropis atherinoides","Cyprinidae",NA,NA,30.75667,-89.82611,NA,NA,"United States of America","Louisiana","Pearl River",NA,NA,"Pearl River along right bank 0.5 mile below Richardson Landing",NA,NA,1993,10,23,"R.D. Suttkus & J.S. Suttkus",NA,NA,"PreservedSpecimen","",NA,"impact","1984-1993","impact_1984-1993",4
"58","TU","Fish",161628,75,"Notropis atherinoides","Cyprinidae",NA,NA,30.75667,-89.82611,NA,NA,"United States of America","Louisiana","Washington",NA,NA,"Pearl River along right bank 0.5 mi. below Richardson Landing.",NA,NA,1991,10,26,"R.D. Suttkus & J.S. Suttkus",NA,NA,"PreservedSpecimen","",NA,"impact","1984-1993","impact_1984-1993",4
"726","TU","Fish",136251,127,"Notropis atherinoides","Cyprinidae",NA,NA,30.705,-89.84611,NA,NA,"United States of America","Mississippi","Pearl River",NA,NA,"Pearl River along left bank just above Pools Bluff Sill.",NA,NA,1984,7,17,"R.D. Suttkus & V.C. Trau",NA,NA,"PreservedSpecimen","",NA,"impact","1984-1993","impact_1984-1993",4
"296","TU","Fish",193014,18,"Notropis atherinoides","Cyprinidae",NA,NA,30.70222,-89.84417,NA,NA,"United States of America","Mississippi","Pearl River",NA,NA,"Pearl River along left bank just below Pool Bluff Sill.",NA,NA,2001,7,21,"",NA,NA,"PreservedSpecimen","",NA,"impact","1994-2003","impact_1994-2003",4
"195","TU","Fish",184769,18,"Notropis atherinoides","Cyprinidae",NA,NA,30.75444,-89.82722,NA,NA,"United States of America","Mississippi","Pearl River",NA,NA,"Pearl River along left bank at second bend below Richardson Landing.",NA,NA,1997,10,12,"R.D. & J.S. Suttkus",NA,NA,"PreservedSpecimen","",NA,"impact","1994-2003","impact_1994-2003",4
"8441","TU","Fish",194447,41,"Notropis atherinoides","Cyprinidae",NA,NA,30.75444,-89.82722,NA,NA,"United States of America","Mississippi","Pearl River",NA,NA,"Pearl River along left bank at 2nd bend below Richardson Ldg.",NA,NA,2002,7,13,"R.D. & J.S. Suttkus",NA,NA,"PreservedSpecimen","",NA,"impact","1994-2003","impact_1994-2003",4
"201","TU","Fish",185379,32,"Notropis atherinoides","Cyprinidae",NA,NA,30.75444,-89.82722,NA,NA,"United States of America","Mississippi","Pearl River",NA,NA,"Pearl River along left bank at second bend below Richardson Ldg.",NA,NA,1998,1,24,"R.D. & J.S. Suttkus",NA,NA,"PreservedSpecimen","",NA,"impact","1994-2003","impact_1994-2003",4
"289","TU","Fish",192778,32,"Notropis atherinoides","Cyprinidae",NA,NA,30.70222,-89.84417,NA,NA,"United States of America","Mississippi","Pearl River",NA,NA,"Pearl River along left bank just below Pool Bluff Sill.",NA,NA,2001,4,28,"",NA,NA,"PreservedSpecimen","",NA,"impact","1994-2003","impact_1994-2003",4
"884","TU","Fish",197262,13,"Notropis atherinoides","Cyprinidae",NA,NA,30.74195,-89.82528,NA,NA,"United States of America","Louisiana","Washington",NA,NA,"Pearl River along right bank at second bend above River Mile 54.",NA,NA,2004,7,17,"R.D. & J.S. Suttkus",NA,NA,"PreservedSpecimen","",NA,"impact","2004-2013","impact_2004-2013",4
"906","TU","Fish",198603,179,"Notropis atherinoides","Cyprinidae",NA,NA,30.74195,-89.82528,NA,NA,"United States of America","Louisiana","Washington",NA,NA,"Pearl River along right bank at second bend above River Mile 54.",NA,NA,2005,7,15,"R.D. & J.S. Suttkus",NA,NA,"PreservedSpecimen","",NA,"impact","2004-2013","impact_2004-2013",4
"892","TU","Fish",197744,28,"Notropis atherinoides","Cyprinidae",NA,NA,30.74055,-89.82694,NA,NA,"United States of America","Mississippi","Pearl River",NA,NA,"Pearl River along left bank at River Mile 54",NA,NA,2004,10,30,"R.D. & J.S. Suttkus",NA,NA,"PreservedSpecimen","",NA,"impact","2004-2013","impact_2004-2013",4
"907","TU","Fish",198613,315,"Notropis atherinoides","Cyprinidae",NA,NA,30.74055,-89.82694,NA,NA,"United States of America","Mississippi","Pearl River",NA,NA,"Pearl River along left bank at River Mile 54",NA,NA,2005,7,15,"R.D. & J.S. Suttkus",NA,NA,"PreservedSpecimen","",NA,"impact","2004-2013","impact_2004-2013",4
"885","TU","Fish",197278,42,"Notropis atherinoides","Cyprinidae",NA,NA,30.74055,-89.82694,NA,NA,"United States of America","Mississippi","Pearl River",NA,NA,"Pearl River along left bank at River Mile 54",NA,NA,2004,7,17,"R.D. & J.S. Suttkus",NA,NA,"PreservedSpecimen","",NA,"impact","2004-2013","impact_2004-2013",4
"113","TU","Fish",34758,7,"Percina vigil","Percidae",NA,NA,30.77861,-89.82972,NA,NA,"United States of America","Louisiana","Washington",NA,NA,"Pearl River just above Coburn Creek, 1.4 mi. E of Hwy. 7 in Bogalusa.",NA,NA,1964,10,16,"R.D. Suttkus & G.E. Gunning",NA,NA,"PreservedSpecimen","",NA,"control","1964-1973","control_1964-1973",2
"1091","TU","Fish",33226,18,"Percina vigil","Percidae",NA,NA,30.76805,-89.83083,NA,NA,"United States of America","Louisiana","Washington",NA,NA,"Pearl River between mouth of Coburn & Bogalusa Creeks; 1.4 mi. E of Hwy. 7 in Bogalusa.",NA,NA,1964,6,11,"R.D. Suttkus & G.E. Gunning",NA,NA,"PreservedSpecimen","",NA,"control","1964-1973","control_1964-1973",2
"177","TU","Fish",68677,9,"Percina vigil","Percidae",NA,NA,30.76805,-89.83083,NA,NA,"United States of America","Louisiana","Washington",NA,NA,"Pearl River between mouth of Coburn & Bogalusa Creeks; 1.5 mi. E of Bogalusa - Fish Stat. #2.",NA,NA,1971,4,20,"R.D. Suttkus & B.A. Thompson",NA,NA,"PreservedSpecimen","",NA,"control","1964-1973","control_1964-1973",2
"192","TU","Fish",83736,19,"Percina vigil","Percidae",NA,NA,30.77861,-89.82972,NA,NA,"United States of America","Louisiana","Washington",NA,NA,"Pearl River below mouth of Coburn Creek.",NA,NA,1973,7,11,"R.D. Suttkus & B.A. Thompson",NA,NA,"PreservedSpecimen","",NA,"control","1964-1973","control_1964-1973",2
"1661","TU","Fish",57364,6,"Percina vigil","Percidae",NA,NA,30.77861,-89.82972,NA,NA,"United States of America","Louisiana","Washington",NA,NA,"Pearl River just above mouth of Coburn Creek; 1.5 mi. E of Bogalusa - Fish Stat. #1.",NA,NA,1969,5,9,"R.D. Suttkus & Cashner",NA,NA,"PreservedSpecimen","",NA,"control","1964-1973","control_1964-1973",2
"273","TU","Fish",121280,5,"Percina vigil","Percidae",NA,NA,30.76805,-89.83083,NA,NA,"United States of America","Louisiana","Washington",NA,NA,"Pearl River along right bank between mouth of Coburn & Bogalusa Creeks.",NA,NA,1981,4,30,"R.D. Suttkus & P.Y. Sorensen",NA,NA,"PreservedSpecimen","",NA,"control","1974-1983","control_1974-1983",2
"257","TU","Fish",115152,16,"Percina vigil","Percidae",NA,NA,30.76805,-89.83083,NA,NA,"United States of America","Louisiana","Washington",NA,NA,"Pearl River along right bank between Coburn & Bogalusa Creeks, 1.5 mi. E of Bogalusa.",NA,NA,1979,10,24,"R.D. Suttkus & G.E. Gunning",NA,NA,"PreservedSpecimen","",NA,"control","1974-1983","control_1974-1983",2
"272","TU","Fish",121253,4,"Percina vigil","Percidae",NA,NA,30.7825,-89.82027,NA,NA,"United States of America","Louisiana","Washington",NA,NA,"Pearl River along left bank, 1.0 mi. below Hwy. 10 bridge.",NA,NA,1981,4,30,"R.D. Suttkus & P.Y. Sorensen",NA,NA,"PreservedSpecimen","",NA,"control","1974-1983","control_1974-1983",2
"256","TU","Fish",115131,7,"Percina vigil","Percidae",NA,NA,30.77861,-89.82972,NA,NA,"United States of America","Louisiana","Washington",NA,NA,"Pearl River along left bank above Coburn Creek 1.5 mi. E of Bogalusa.",NA,NA,1979,10,24,"R.D. Suttkus & G.E. Gunning",NA,NA,"PreservedSpecimen","",NA,"control","1974-1983","control_1974-1983",2
"285","TU","Fish",125153,8,"Percina vigil","Percidae",NA,NA,30.77583,-89.82722,NA,NA,"United States of America","Mississippi","Pearl River",NA,NA,"Pearl River along left bank opposite mouth of Coburn Creek.",NA,NA,1982,4,29,"R.D. Suttkus & S.O. Rohmann",NA,NA,"PreservedSpecimen","",NA,"control","1974-1983","control_1974-1983",2
"1671","TU","Fish",57383,23,"Percina vigil","Percidae",NA,NA,30.75667,-89.82611,NA,NA,"United States of America","Louisiana","Washington",NA,NA,"Pearl River 0.5 mi. downstream from Richardson Landing; 1.5 mi. SE of Bogalusa - Fish Stat. #3.",NA,NA,1969,5,9,"R.D. Suttkus & Cashner",NA,NA,"PreservedSpecimen","",NA,"impact","1964-1973","impact_1964-1973",2
"96","TU","Fish",193429,4,"Percina vigil","Percidae",NA,NA,30.7825,-89.82027,NA,NA,"United States of America","Louisiana","Washington",NA,NA,"Pearl River along right bank 1 mi. below LA Hwy. 10 bridge.",NA,NA,2001,10,7,"",NA,NA,"PreservedSpecimen","",NA,"control","1994-2003","control_1994-2003",2
"62","TU","Fish",184049,5,"Percina vigil","Percidae",NA,NA,30.7825,-89.82027,NA,NA,"United States of America","Louisiana","Washington",NA,NA,"Pearl River along right bank 1.0 mi. below LA Hwy. 10.",NA,NA,1997,6,28,"R.D. & J.S. Suttkus",NA,NA,"PreservedSpecimen","",NA,"control","1994-2003","control_1994-2003",2
"601","TU","Fish",182471,6,"Percina vigil","Percidae",NA,NA,30.7825,-89.82027,NA,NA,"United States of America","Louisiana","Washington",NA,NA,"Pearl River along right bank 1 mi. below LA Hwy. 10.",NA,NA,1997,4,13,"R.D. & J.S. Suttkus",NA,NA,"PreservedSpecimen","",NA,"control","1994-2003","control_1994-2003",2
"63","TU","Fish",184060,8,"Percina vigil","Percidae",NA,NA,30.77611,-89.82889,NA,NA,"United States of America","Mississippi","Pearl River",NA,NA,"Pearl River along right bank above Coburn Creek.",NA,NA,1997,6,28,"R.D. & J.S. Suttkus",NA,NA,"PreservedSpecimen","",NA,"control","1994-2003","control_1994-2003",2
"3081","TU","Fish",31291,10,"Notropis atherinoides","Cyprinidae",NA,NA,30.70222,-89.84417,NA,NA,"United States of America","Louisiana","Washington",NA,NA,"Pearl River just below dam at Pools Bluff; 4 mi. S of Bogalusa.",NA,NA,1963,12,13,"R.D. Suttkus & G.E. Gunning",NA,NA,"PreservedSpecimen","",NA,"impact","1954-1963","impact_1954-1963",4
"3041","TU","Fish",31124,75,"Notropis atherinoides","Cyprinidae",NA,NA,30.70222,-89.84417,NA,NA,"United States of America","Louisiana","Washington",NA,NA,"Pearl River just below dam at Pools Bluff Sill; 4 mi. S of Bogalusa.",NA,NA,1963,4,26,"R.D. Suttkus & G.E. Gunning",NA,NA,"PreservedSpecimen","",NA,"impact","1954-1963","impact_1954-1963",4
"1791","TU","Fish",70585,25,"Percina vigil","Percidae",NA,NA,30.74055,-89.82694,NA,NA,"United States of America","Louisiana","Washington",NA,NA,"Pearl River at sandbar, River Mile 54 - Fish Stat. #4.",NA,NA,1971,7,15,"R.D. Suttkus & B.A. Thompson",NA,NA,"PreservedSpecimen","",NA,"impact","1964-1973","impact_1964-1973",2
"1381","TU","Fish",42166,171,"Percina vigil","Percidae",NA,NA,30.70222,-89.84417,NA,NA,"United States of America","Louisiana","Washington",NA,NA,"Pearl River just below sill at Pools Bluff; 4 mi. S of Bogalusa.",NA,NA,1966,10,29,"R.D. Suttkus, Clemmer & Jordan",NA,NA,"PreservedSpecimen","",NA,"impact","1964-1973","impact_1964-1973",2
"124","TU","Fish",39325,60,"Percina vigil","Percidae",NA,NA,30.70222,-89.84417,NA,NA,"United States of America","Louisiana","Washington",NA,NA,"Pearl River just below sill at Pools Bluff; 4 mi. S of Bogalusa",NA,NA,1965,11,19,"Suttkus & Gunning",NA,NA,"PreservedSpecimen","",NA,"impact","1964-1973","impact_1964-1973",2
"172","TU","Fish",62180,145,"Percina vigil","Percidae",NA,NA,30.70222,-89.84417,NA,NA,"United States of America","Louisiana","Washington",NA,NA,"Pearl River just below sill at Pools Bluff, 4 mi. S of Bogalusa - Fish Stat. #6.",NA,NA,1970,4,21,"R.D. Suttkus, G.E. Gunning & B.A. Thompson",NA,NA,"PreservedSpecimen","",NA,"impact","1964-1973","impact_1964-1973",2
"1741","TU","Fish",64889,7,"Percina vigil","Percidae",NA,NA,30.74055,-89.82694,NA,NA,"United States of America","Louisiana","Washington",NA,NA,"Pearl River at sandbar; River Mile 54.",NA,NA,1970,10,27,"R.D. Suttkus & B.A. Thompson",NA,NA,"PreservedSpecimen","",NA,"impact","1964-1973","impact_1964-1973",2
"7","TU","Fish",97522,6,"Percina vigil","Percidae",NA,NA,30.74055,-89.82694,NA,NA,"United States of America","Louisiana","Washington",NA,NA,"Pearl River along left bank at River Mile 54, 2.3 mi. SE of Bogalusa.",NA,NA,1976,4,15,"G.E. Gunning & D.C. Heins",NA,NA,"PreservedSpecimen","",NA,"impact","1974-1983","impact_1974-1983",2
"2001","TU","Fish",86516,19,"Percina vigil","Percidae",NA,NA,30.70222,-89.84417,NA,NA,"United States of America","Louisiana","Washington",NA,NA,"Pearl River, just below sill at Pools Bluff, 4 mi. S of Bogalusa.",NA,NA,1974,1,14,"R.D. Suttkus & G.E. Gunning",NA,NA,"PreservedSpecimen","",NA,"impact","1974-1983","impact_1974-1983",2
"290","TU","Fish",125191,4,"Percina vigil","Percidae",NA,NA,30.70222,-89.84417,NA,NA,"United States of America","Mississippi","Pearl River",NA,NA,"Pearl River along left bank just below Pools Bluff Sill, 4 mi. S of Bogalusa.",NA,NA,1982,4,29,"R.D. Suttkus & S.O. Rohmann",NA,NA,"PreservedSpecimen","",NA,"impact","1974-1983","impact_1974-1983",2
"226","TU","Fish",104287,56,"Percina vigil","Percidae",NA,NA,30.70222,-89.84417,NA,NA,"United States of America","Louisiana","Washington",NA,NA,"Pearl River along left bank below sill at Pools Bluff; 4 mi. S of Bogalusa.",NA,NA,1977,10,19,"R.D. Suttkus & P. Sorensen",NA,NA,"PreservedSpecimen","",NA,"impact","1974-1983","impact_1974-1983",2
"2451","TU","Fish",107712,7,"Percina vigil","Percidae",NA,NA,30.74055,-89.82694,NA,NA,"United States of America","Louisiana","Washington",NA,NA,"Pearl River along left bank at River Mile 54; 2.3 mi. SE of Bogalusa.",NA,NA,1978,6,8,"R.D. Suttkus & S.O. Rohmann",NA,NA,"PreservedSpecimen","",NA,"impact","1974-1983","impact_1974-1983",2
"231","TU","Fish",160042,17,"Percina vigil","Percidae",NA,NA,30.70222,-89.84417,NA,NA,"United States of America","Mississippi","Pearl River",NA,NA,"Pearl River along left bank just below Pools Bluff Sill.",NA,NA,1991,1,3,"R.D. Suttkus & J.H. Caruso",NA,NA,"PreservedSpecimen","",NA,"impact","1984-1993","impact_1984-1993",2
"331","TU","Fish",150550,114,"Percina vigil","Percidae",NA,NA,30.70222,-89.84417,NA,NA,"United States of America","Mississippi","Pearl River",NA,NA,"Pearl River along left bank just below Pools Bluff Sill; 4 mi. S of Bogalusa.",NA,NA,1987,10,29,"R.D. Suttkus & J.H. Caruso",NA,NA,"PreservedSpecimen","",NA,"impact","1984-1993","impact_1984-1993",2
"355","TU","Fish",167841,24,"Percina vigil","Percidae",NA,NA,30.70222,-89.84417,NA,NA,"United States of America","Mississippi","Pearl River",NA,NA,"Pearl River along left bank just below Pools Bluff Sill",NA,NA,1993,10,23,"R.D. Suttkus & J.S. Suttkus",NA,NA,"PreservedSpecimen","",NA,"impact","1984-1993","impact_1984-1993",2
"31","TU","Fish",162902,5,"Percina vigil","Percidae",NA,NA,30.75667,-89.82611,NA,NA,"United States of America","Louisiana","Washington",NA,NA,"Pearl River along right bank 0.5 mi. below Richardson Landing.",NA,NA,1992,4,24,"R.D. Suttkus & J.S. Suttkus",NA,NA,"PreservedSpecimen","",NA,"impact","1984-1993","impact_1984-1993",2
"3221","TU","Fish",143904,10,"Percina vigil","Percidae",NA,NA,30.70222,-89.84417,NA,NA,"United States of America","Mississippi","Pearl River",NA,NA,"Pearl River along left bank just below sill at Pools Bluff.",NA,NA,1986,1,30,"R.D. Suttkus & K.G. Goodfellow",NA,NA,"PreservedSpecimen","",NA,"impact","1984-1993","impact_1984-1993",2
"82","TU","Fish",187935,11,"Percina vigil","Percidae",NA,NA,30.75444,-89.82722,NA,NA,"United States of America","Mississippi","Pearl River",NA,NA,"Pearl River along left side at second bend below Richardson Ldg.",NA,NA,1999,4,16,"R.D. & J.S. Suttkus",NA,NA,"PreservedSpecimen","",NA,"impact","1994-2003","impact_1994-2003",2
"652","TU","Fish",184113,11,"Percina vigil","Percidae",NA,NA,30.74195,-89.82528,NA,NA,"United States of America","Louisiana","Washington",NA,NA,"Pearl River along right bank two bends above River Mile 54.",NA,NA,1997,6,28,"R.D. & J.S. Suttkus",NA,NA,"PreservedSpecimen","",NA,"impact","1994-2003","impact_1994-2003",2
"72","TU","Fish",185262,13,"Percina vigil","Percidae",NA,NA,30.70389,-89.84472,NA,NA,"United States of America","Mississippi","Pearl River",NA,NA,"Pearl River along left bank just below Pools Bluff Sill",NA,NA,1998,1,24,"R.D. & J.S. Suttkus",NA,NA,"PreservedSpecimen","",NA,"impact","1994-2003","impact_1994-2003",2
"581","TU","Fish",181403,6,"Percina vigil","Percidae",NA,NA,30.70389,-89.84472,NA,NA,"United States of America","Mississippi","Pearl River",NA,NA,"Pearl River along left bank just below Pools Bluff Sill.",NA,NA,1996,10,5,"R.D. & J.S. Suttkus",NA,NA,"PreservedSpecimen","",NA,"impact","1994-2003","impact_1994-2003",2
"83","TU","Fish",187948,5,"Percina vigil","Percidae",NA,NA,30.74195,-89.82528,NA,NA,"United States of America","Louisiana","Washington",NA,NA,"Pearl River along right bank two bends above River Mile 54.",NA,NA,1999,4,16,"R.D. & J.S. Suttkus",NA,NA,"PreservedSpecimen","",NA,"impact","1994-2003","impact_1994-2003",2
"3311","TU","Fish",31063,41,"Pimephales vigilax","Cyprinidae",NA,NA,30.76222,-89.83111,NA,NA,"United States of America","Louisiana","Washington",NA,NA,"Pearl River at River Mile 53.7, 2.3 miles SE of Bogalusa.",NA,NA,1963,8,30,"R.D. Suttkus & G.E. Gunning",NA,NA,"PreservedSpecimen","",NA,"control","1954-1963","control_1954-1963",4
"329","TU","Fish",31254,14,"Pimephales vigilax","Cyprinidae",NA,NA,30.77861,-89.82972,NA,NA,"United States of America","Louisiana","Washington",NA,NA,"Pearl River just above mouth of Coburn Creek; 1.5 miles E of Hwy.7 in Bogalusa",NA,NA,1963,7,11,"R.D. Suttkus & G.E. Gunning",NA,NA,"PreservedSpecimen","",NA,"control","1954-1963","control_1954-1963",4
"338","TU","Fish",30957,329,"Pimephales vigilax","Cyprinidae",NA,NA,30.77861,-89.82972,NA,NA,"United States of America","Louisiana","Washington",NA,NA,"Pearl River just above mouth of Coburn Creek, 1.5 mile E of Hwy. 7 in Bogalusa, LA.",NA,NA,1963,11,21,"R.D. Suttkus & G.E. Gunning",NA,NA,"PreservedSpecimen","",NA,"control","1954-1963","control_1954-1963",4
"3341","TU","Fish",30602,220,"Pimephales vigilax","Cyprinidae",NA,NA,30.77861,-89.82972,NA,NA,"United States of America","Louisiana","Washington",NA,NA,"Pearl River just above mouth of Coburn Creek at Bogalusa.",NA,NA,1963,10,24,"R.D. Suttkus & G.E. Gunning",NA,NA,"PreservedSpecimen","",NA,"control","1954-1963","control_1954-1963",4
"335","TU","Fish",31528,224,"Pimephales vigilax","Cyprinidae",NA,NA,30.76805,-89.83083,NA,NA,"United States of America","Louisiana","Washington",NA,NA,"Pearl River between Coburn & Bogalusa Creeks; 1.4 mi. E of Hwy. 7 in Bogalusa.",NA,NA,1963,10,24,"R.D. Suttkus & G.E. Gunning",NA,NA,"PreservedSpecimen","",NA,"control","1954-1963","control_1954-1963",4
"3611","TU","Fish",27798,19,"Pimephales vigilax","Cyprinidae",NA,NA,30.77861,-89.82972,NA,NA,"United States of America","Louisiana","Washington",NA,NA,"Pearl River just above mouth of Coburn Creek, 1.5 mi. E of Hwy. 7 in Bogalusa.",NA,NA,1965,2,12,"R.D. Suttkus & G.E. Gunning",NA,NA,"PreservedSpecimen","",NA,"control","1964-1973","control_1964-1973",4
"3462","TU","Fish",33227,10,"Pimephales vigilax","Cyprinidae",NA,NA,30.76805,-89.83083,NA,NA,"United States of America","Louisiana","Washington",NA,NA,"Pearl River between mouth of Coburn & Bogalusa Creeks; 1.4 mi. E of Hwy. 7 in Bogalusa.",NA,NA,1964,6,11,"R.D. Suttkus & G.E. Gunning",NA,NA,"PreservedSpecimen","",NA,"control","1964-1973","control_1964-1973",4
"409","TU","Fish",70599,29,"Pimephales vigilax","Cyprinidae",NA,NA,30.77861,-89.82972,NA,NA,"United States of America","Louisiana","Washington",NA,NA,"Pearl River at sandbar below mouth of Coburn Creek - Fish Stat. #2.",NA,NA,1971,7,15,"R.D. Suttkus & B.A. Thompson",NA,NA,"PreservedSpecimen","",NA,"control","1964-1973","control_1964-1973",4
"394","TU","Fish",57360,26,"Pimephales vigilax","Cyprinidae",NA,NA,30.77861,-89.82972,NA,NA,"United States of America","Louisiana","Washington",NA,NA,"Pearl River just above mouth of Coburn Creek; 1.5 mi. E of Bogalusa - Fish Stat. #1.",NA,NA,1969,5,9,"R.D. Suttkus & Cashner",NA,NA,"PreservedSpecimen","",NA,"control","1964-1973","control_1964-1973",4
"354","TU","Fish",34327,15,"Pimephales vigilax","Cyprinidae",NA,NA,30.77861,-89.82972,NA,NA,"United States of America","Louisiana","Washington",NA,NA,"Pearl River just above mouth of Coburn Creek; 1.4 mi. E of Hwy. 7 in Bogalusa.",NA,NA,1964,9,11,"R.D. Suttkus, G.E. Gunning & A. Kuris",NA,NA,"PreservedSpecimen","",NA,"control","1964-1973","control_1964-1973",4
"632","TU","Fish",128709,61,"Pimephales vigilax","Cyprinidae",NA,NA,30.77583,-89.82722,NA,NA,"United States of America","Mississippi","Pearl River",NA,NA,"Pearl River along left bank opposite mouth of Coburn Creek.",NA,NA,1983,1,27,"R.D. Suttkus & S.O. Rohmann",NA,NA,"PreservedSpecimen","",NA,"control","1974-1983","control_1974-1983",4
"455","TU","Fish",96925,25,"Pimephales vigilax","Cyprinidae",NA,NA,30.77861,-89.82972,NA,NA,"United States of America","Louisiana","Washington",NA,NA,"Pearl River along left bank above Coburn Creek, 1.5 mi. E of Bogalusa.",NA,NA,1976,1,22,"G.E. Gunning & D.C. Heins",NA,NA,"PreservedSpecimen","",NA,"control","1974-1983","control_1974-1983",4
"445","TU","Fish",94582,10,"Pimephales vigilax","Cyprinidae",NA,NA,30.77861,-89.82972,NA,NA,"United States of America","Louisiana","Washington",NA,NA,"Pearl River along left bank just above Coburn Creek.",NA,NA,1975,7,2,"R.D. Suttkus & J.H. Caruso",NA,NA,"PreservedSpecimen","",NA,"control","1974-1983","control_1974-1983",4
"565","TU","Fish",116286,31,"Pimephales vigilax","Cyprinidae",NA,NA,30.76805,-89.83083,NA,NA,"United States of America","Louisiana","Washington",NA,NA,"Pearl River along right bank between Coburn & Bogalusa Creeks; 1.5 mi. E of Bogalusa.",NA,NA,1980,1,30,"R.D. Suttkus and S.O. Rohmann",NA,NA,"PreservedSpecimen","",NA,"control","1974-1983","control_1974-1983",4
"8121","TU","Fish",106298,11,"Pimephales vigilax","Cyprinidae",NA,NA,30.77861,-89.82972,NA,NA,"United States of America","Louisiana","Washington",NA,NA,"Pearl River along left bank above Coburn Creek; 1.5 mi. E of Bogalusa.",NA,NA,1978,3,23,"S.O. Rohmann & G.E. Gunning",NA,NA,"PreservedSpecimen","",NA,"control","1974-1983","control_1974-1983",4
"720","TU","Fish",145803,31,"Pimephales vigilax","Cyprinidae",NA,NA,30.77583,-89.82722,NA,NA,"United States of America","Louisiana","Washington",NA,NA,"Pearl River along left bank opposite mouth of Coburn Creek.",NA,NA,1986,7,1,"R.D. Suttkus & K.G. Goodfellow",NA,NA,"PreservedSpecimen","",NA,"control","1984-1993","control_1984-1993",4
"747","TU","Fish",149298,20,"Pimephales vigilax","Cyprinidae",NA,NA,30.76528,-89.83222,NA,NA,"United States of America","Mississippi","Pearl River",NA,NA,"Pearl River along left bank opposite Bogalusa Creek.",NA,NA,1987,7,14,"R.D. Suttkus & S. Herbert",NA,NA,"PreservedSpecimen","",NA,"control","1984-1993","control_1984-1993",4
"657","TU","Fish",134741,36,"Pimephales vigilax","Cyprinidae",NA,NA,30.77583,-89.82722,NA,NA,"United States of America","Mississippi","Pearl River",NA,NA,"Pearl River along left bank opposite mouth of Coburn Creek.",NA,NA,1984,4,26,"R.D. Suttkus & V. Trau",NA,NA,"PreservedSpecimen","",NA,"control","1984-1993","control_1984-1993",4
"6651","TU","Fish",136206,236,"Pimephales vigilax","Cyprinidae",NA,NA,30.76528,-89.83222,NA,NA,"United States of America","Mississippi","Pearl River",NA,NA,"Pearl River along left bank opposite mouth of Bogalusa Creek.",NA,NA,1984,7,17,"R.D. Suttkus & V.C. Trau",NA,NA,"PreservedSpecimen","",NA,"control","1984-1993","control_1984-1993",4
"74","TU","Fish",162856,12,"Pimephales vigilax","Cyprinidae",NA,NA,30.7825,-89.82027,NA,NA,"United States of America","Louisiana","Washington",NA,NA,"Pearl River along right bank 1.0 mi. below Hwy. 10 (above usual bar).",NA,NA,1992,4,24,"R.D. Suttkus & J.S. Suttkus",NA,NA,"PreservedSpecimen","",NA,"control","1984-1993","control_1984-1993",4
"220","TU","Fish",184043,29,"Pimephales vigilax","Cyprinidae",NA,NA,30.7825,-89.82027,NA,NA,"United States of America","Louisiana","Washington",NA,NA,"Pearl River along right bank 1.0 mi. below LA Hwy. 10.",NA,NA,1997,6,28,"R.D. & J.S. Suttkus",NA,NA,"PreservedSpecimen","",NA,"control","1994-2003","control_1994-2003",4
"825","TU","Fish",193668,31,"Pimephales vigilax","Cyprinidae",NA,NA,30.76528,-89.83222,NA,NA,"United States of America","Mississippi","Pearl River",NA,NA,"Pearl River along left bank opposite Bogalusa Creek.",NA,NA,2002,1,26,"RD & JS Suttkus",NA,NA,"PreservedSpecimen","",NA,"control","1994-2003","control_1994-2003",4
"173","TU","Fish",176913,93,"Pimephales vigilax","Cyprinidae",NA,NA,30.76528,-89.83222,NA,NA,"United States of America","Mississippi","Pearl River",NA,NA,"Pearl River along left bank opposite Bogalusa Creek.",NA,NA,1995,10,7,"R.D. Suttkus & C.H. Dannemann",NA,NA,"PreservedSpecimen","",NA,"control","1994-2003","control_1994-2003",4
"214","TU","Fish",182476,127,"Pimephales vigilax","Cyprinidae",NA,NA,30.77611,-89.82777,NA,NA,"United States of America","Mississippi","Pearl River",NA,NA,"Pearl River along left bank opposite Coburn Creek.",NA,NA,1997,4,13,"R.D. & J.S. Suttkus",NA,NA,"PreservedSpecimen","",NA,"control","1994-2003","control_1994-2003",4
"2331","TU","Fish",185412,18,"Pimephales vigilax","Cyprinidae",NA,NA,30.78444,-89.81973,NA,NA,"United States of America","Louisiana","Washington",NA,NA,"Pearl River along right bank 0.5 mi. below LA Hwy. 10",NA,NA,1998,1,24,"R.D. & J.S. Suttkus",NA,NA,"PreservedSpecimen","",NA,"control","1994-2003","control_1994-2003",4
"893","TU","Fish",197717,17,"Pimephales vigilax","Cyprinidae",NA,NA,30.77611,-89.82777,NA,NA,"United States of America","Mississippi","Pearl River",NA,NA,"Pearl River along left bank opposite Coburn Creek",NA,NA,2004,10,30,"R.D. & J.S. Suttkus",NA,NA,"PreservedSpecimen","",NA,"control","2004-2013","control_2004-2013",4
"8851","TU","Fish",197196,24,"Pimephales vigilax","Cyprinidae",NA,NA,30.7825,-89.82027,NA,NA,"United States of America","Louisiana","Washington",NA,NA,"Pearl River along right bank 1.0 miles below LA Hwy. 10.",NA,NA,2004,7,17,"R.D. & J.S. Suttkus",NA,NA,"PreservedSpecimen","",NA,"control","2004-2013","control_2004-2013",4
"8721","TU","Fish",196863,33,"Pimephales vigilax","Cyprinidae",NA,NA,30.77611,-89.82777,NA,NA,"United States of America","Mississippi","Pearl River",NA,NA,"Pearl River along left bank opposite mouth of Coburn Creek.",NA,NA,2004,1,31,"R.D. & J.S. Suttkus",NA,NA,"PreservedSpecimen","",NA,"control","2004-2013","control_2004-2013",4
"8991","TU","Fish",198266,29,"Pimephales vigilax","Cyprinidae",NA,NA,30.76528,-89.83222,NA,NA,"United States of America","Mississippi","Pearl River",NA,NA,"Pearl River along left bank opposite Bogalusa Creek",NA,NA,2005,2,12,"R.D. & J.S. Suttkus",NA,NA,"PreservedSpecimen","",NA,"control","2004-2013","control_2004-2013",4
"898","TU","Fish",198262,8,"Pimephales vigilax","Cyprinidae",NA,NA,30.77611,-89.82777,NA,NA,"United States of America","Mississippi","Pearl River",NA,NA,"Pearl River along left bank opposite Coburn Creek",NA,NA,2005,2,12,"R.D. & J.S. Suttkus",NA,NA,"PreservedSpecimen","",NA,"control","2004-2013","control_2004-2013",4
"330","TU","Fish",31056,165,"Pimephales vigilax","Cyprinidae",NA,NA,30.75667,-89.82611,NA,NA,"United States of America","Louisiana","Washington",NA,NA,"Pearl River 0.5 mile downstream from Richardson Landing or 1.5 miles SE of Bogalusa.",NA,NA,1963,8,30,"R.D. Suttkus & G.E. Gunning",NA,NA,"PreservedSpecimen","",NA,"impact","1954-1963","impact_1954-1963",4
"333","TU","Fish",31240,145,"Pimephales vigilax","Cyprinidae",NA,NA,30.75667,-89.82611,NA,NA,"United States of America","Louisiana","Washington",NA,NA,"Pearl River 0.5 mi. downstream from Richardson Landing; 1.5 mi. SE of Bogalusa.",NA,NA,1963,9,29,"R.D. Suttkus & G.E. Gunning",NA,NA,"PreservedSpecimen","",NA,"impact","1954-1963","impact_1954-1963",4
"336","TU","Fish",31539,104,"Pimephales vigilax","Cyprinidae",NA,NA,30.74055,-89.82694,NA,NA,"United States of America","Louisiana","Washington",NA,NA,"Pearl River at River Mile 54; 2.3 mi. SE of Bogalusa.",NA,NA,1963,10,24,"R.D. Suttkus & G.E. Gunning",NA,NA,"PreservedSpecimen","",NA,"impact","1954-1963","impact_1954-1963",4
"401","TU","Fish",62155,32,"Pimephales vigilax","Cyprinidae",NA,NA,30.705,-89.84611,NA,NA,"United States of America","Louisiana","Washington",NA,NA,"Pearl River just above sill at Pools Bluff, 4 mi. S of Bogalusa - Fish Stat. #5.",NA,NA,1970,4,21,"R.D. Suttkus, G.E. Gunning & B.A. Thompson",NA,NA,"PreservedSpecimen","",NA,"impact","1964-1973","impact_1964-1973",4
"404","TU","Fish",68175,95,"Pimephales vigilax","Cyprinidae",NA,NA,30.74055,-89.82694,NA,NA,"United States of America","Louisiana","Washington",NA,NA,"Pearl River at River Mile 54, 2.3 mi. SE of Bogalusa.",NA,NA,1971,1,25,"R.D. Suttkus & G.E. Gunning",NA,NA,"PreservedSpecimen","",NA,"impact","1964-1973","impact_1964-1973",4
"71","TU","Fish",79390,16,"Pimephales vigilax","Cyprinidae",NA,NA,30.70222,-89.84417,NA,NA,"United States of America","Louisiana","Washington",NA,NA,"Pearl River just below mouth of Coburn Creek - Fish Stat. #2.",NA,NA,1972,10,17,"B.A. Thompson & Cashner",NA,NA,"PreservedSpecimen","",NA,"impact","1964-1973","impact_1964-1973",4
"388","TU","Fish",53896,20,"Pimephales vigilax","Cyprinidae",NA,NA,30.705,-89.84611,NA,NA,"United States of America","Louisiana","Washington",NA,NA,"Pearl River just above sill at Pools Bluff; 4 mi. S of Bogalusa - Fish Stat. #5.",NA,NA,1968,10,23,"R.D. Suttkus & G.E. Gunning",NA,NA,"PreservedSpecimen","",NA,"impact","1964-1973","impact_1964-1973",4
"3661","TU","Fish",39309,62,"Pimephales vigilax","Cyprinidae",NA,NA,30.74055,-89.82694,NA,NA,"United States of America","Louisiana","Washington",NA,NA,"Pearl River at River Mile 54; 2.3 mi. SE of Bogalusa.",NA,NA,1965,11,19,"Suttkus & Gunning",NA,NA,"PreservedSpecimen","",NA,"impact","1964-1973","impact_1964-1973",4
"538","TU","Fish",108499,47,"Pimephales vigilax","Cyprinidae",NA,NA,30.75667,-89.82611,NA,NA,"United States of America","Louisiana","Washington",NA,NA,"Pearl River along right bank 0.5 mi. below Richardson Landing, 1.5 mi. SE of Bogalusa.",NA,NA,1978,7,19,"R.D. Suttkus & P. Sorensen",NA,NA,"PreservedSpecimen","",NA,"impact","1974-1983","impact_1974-1983",4
"521","TU","Fish",106866,13,"Pimephales vigilax","Cyprinidae",NA,NA,30.74055,-89.82694,NA,NA,"United States of America","Louisiana","Washington",NA,NA,"Pearl River along left bank at River Mile 54; 2.3 mi. SE of Bogalusa.",NA,NA,1978,4,20,"R.D. Suttkus & S.O. Rohmann",NA,NA,"PreservedSpecimen","",NA,"impact","1974-1983","impact_1974-1983",4
"541","TU","Fish",108550,22,"Pimephales vigilax","Cyprinidae",NA,NA,30.70222,-89.84417,NA,NA,"United States of America","Louisiana","Washington",NA,NA,"Pearl River along left bank below sill at Pools Bluff; 4 mi. S of Bogalusa.",NA,NA,1978,7,19,"R.D. Suttkus & P. Sorensen",NA,NA,"PreservedSpecimen","",NA,"impact","1974-1983","impact_1974-1983",4
"560","TU","Fish",115164,41,"Pimephales vigilax","Cyprinidae",NA,NA,30.705,-89.84611,NA,NA,"United States of America","Louisiana","Washington",NA,NA,"Pearl River along left bank just above Pools Bluff Sill, 4.0 mi. S of Bogalusa.",NA,NA,1979,10,25,"R.D. Suttkus & P. Sorensen",NA,NA,"PreservedSpecimen","",NA,"impact","1974-1983","impact_1974-1983",4
"4861","TU","Fish",102699,26,"Pimephales vigilax","Cyprinidae",NA,NA,30.705,-89.84611,NA,NA,"United States of America","Louisiana","Washington",NA,NA,"Pearl River along left bank just above sill at Pools Bluff, 4 mi. S of Bogalusa.",NA,NA,1977,7,6,"R.D. Suttkus & P. Sorensen",NA,NA,"PreservedSpecimen","",NA,"impact","1974-1983","impact_1974-1983",4
"687","TU","Fish",140323,49,"Pimephales vigilax","Cyprinidae",NA,NA,30.75667,-89.82611,NA,NA,"United States of America","Louisiana","Washington",NA,NA,"Pearl River along right bank 0.5 mi. below Richardson Landing.",NA,NA,1985,4,25,"R.D. Suttkus & K.G. Goodfellow",NA,NA,"PreservedSpecimen","",NA,"impact","1984-1993","impact_1984-1993",4
"582","TU","Fish",161049,35,"Pimephales vigilax","Cyprinidae",NA,NA,30.705,-89.84611,NA,NA,"United States of America","Mississippi","Pearl River",NA,NA,"Pearl River along left bank just above Pools Bluff Sill.",NA,NA,1991,7,5,"R.D. Suttkus & J.S. Suttkus",NA,NA,"PreservedSpecimen","",NA,"impact","1984-1993","impact_1984-1993",4
"757","TU","Fish",150524,189,"Pimephales vigilax","Cyprinidae",NA,NA,30.705,-89.84611,NA,NA,"United States of America","Mississippi","Pearl River",NA,NA,"Pearl River along left bank just above Pools Bluff Sill; 4 mi. S of Bogalusa.",NA,NA,1987,10,29,"R.D. Suttkus & J.H. Caruso",NA,NA,"PreservedSpecimen","",NA,"impact","1984-1993","impact_1984-1993",4
"689","TU","Fish",140348,55,"Pimephales vigilax","Cyprinidae",NA,NA,30.705,-89.84611,NA,NA,"United States of America","Mississippi","Pearl River",NA,NA,"Pearl River along left bank just above Pools Bluff Sill.",NA,NA,1985,4,25,"R.D. Suttkus & K.G. Goodfellow",NA,NA,"PreservedSpecimen","",NA,"impact","1984-1993","impact_1984-1993",4
"7621","TU","Fish",151223,140,"Pimephales vigilax","Cyprinidae",NA,NA,30.75667,-89.82611,NA,NA,"United States of America","Louisiana","Washington",NA,NA,"Pearl River along right bank 0.5 mi. below Richardson Landing.",NA,NA,1988,1,14,"R.D. Suttkus & J.H. Caruso",NA,NA,"PreservedSpecimen","",NA,"impact","1984-1993","impact_1984-1993",4
"851","TU","Fish",194965,77,"Pimephales vigilax","Cyprinidae",NA,NA,30.75444,-89.82722,NA,NA,"United States of America","Mississippi","Pearl River",NA,NA,"Pearl River along left bank at 2nd bend below Richardson Ldg.",NA,NA,2003,2,1,"R.D. & J.S. Suttkus",NA,NA,"PreservedSpecimen","",NA,"impact","1994-2003","impact_1994-2003",4
"860","TU","Fish",196236,11,"Pimephales vigilax","Cyprinidae",NA,NA,30.75444,-89.82722,NA,NA,"United States of America","Mississippi","Pearl River",NA,NA,"Pearl River along left bank at second bend below Richardson Ldg.",NA,NA,2003,7,19,"R.D. & J.S. Suttkus",NA,NA,"PreservedSpecimen","",NA,"impact","1994-2003","impact_1994-2003",4
"3071","TU","Fish",191419,24,"Pimephales vigilax","Cyprinidae",NA,NA,30.74195,-89.82528,NA,NA,"United States of America","Louisiana","Washington",NA,NA,"Pearl River along right bank at second bend above River Mile 54.",NA,NA,2000,10,7,"",NA,NA,"PreservedSpecimen","",NA,"impact","1994-2003","impact_1994-2003",4
"1681","TU","Fish",175646,9,"Pimephales vigilax","Cyprinidae",NA,NA,30.74055,-89.82694,NA,NA,"United States of America","Louisiana","Washington",NA,NA,"Pearl River along right bank at two bends above River Mile 54.",NA,NA,1995,7,29,"R.D. & J.S. Suttkus",NA,NA,"PreservedSpecimen","",NA,"impact","1994-2003","impact_1994-2003",4
"1471","TU","Fish",171869,118,"Pimephales vigilax","Cyprinidae",NA,NA,30.74055,-89.82694,NA,NA,"United States of America","Mississippi","Pearl River",NA,NA,"Pearl River along left bank at River Mile 54.",NA,NA,1994,10,15,"R.D. Suttkus & J.S. Suttkus",NA,NA,"PreservedSpecimen","",NA,"impact","1994-2003","impact_1994-2003",4
"8961","TU","Fish",197759,9,"Pimephales vigilax","Cyprinidae",NA,NA,30.70222,-89.84417,NA,NA,"United States of America","Mississippi","Pearl River",NA,NA,"Pearl River along left bank just below Pool Bluff Sill.",NA,NA,2004,10,30,"R.D. & J.S. Suttkus",NA,NA,"PreservedSpecimen","",NA,"impact","2004-2013","impact_2004-2013",4
"900","TU","Fish",198275,55,"Pimephales vigilax","Cyprinidae",NA,NA,30.75444,-89.82722,NA,NA,"United States of America","Mississippi","Pearl River",NA,NA,"Pearl River along left bank at 2nd bend below Richardson Ldg.",NA,NA,2005,2,12,"R.D. & J.S. Suttkus",NA,NA,"PreservedSpecimen","",NA,"impact","2004-2013","impact_2004-2013",4
"9011","TU","Fish",198285,12,"Pimephales vigilax","Cyprinidae",NA,NA,30.74195,-89.82528,NA,NA,"United States of America","Louisiana","Washington",NA,NA,"Pearl River along right bank at second bend above River Mile 54.",NA,NA,2005,2,12,"R.D. & J.S. Suttkus",NA,NA,"PreservedSpecimen","",NA,"impact","2004-2013","impact_2004-2013",4
"894","TU","Fish",197731,10,"Pimephales vigilax","Cyprinidae",NA,NA,30.75444,-89.82722,NA,NA,"United States of America","Mississippi","Pearl River",NA,NA,"Pearl River along left bank at 2nd bend below Richardson Ldg.",NA,NA,2004,10,30,"R.D. & J.S. Suttkus",NA,NA,"PreservedSpecimen","",NA,"impact","2004-2013","impact_2004-2013",4
"903","TU","Fish",198307,14,"Pimephales vigilax","Cyprinidae",NA,NA,30.70222,-89.84417,NA,NA,"United States of America","Mississippi","Pearl River",NA,NA,"Pearl River along left bank just below Pools Bluff Sill.",NA,NA,2005,2,12,"R.D. & J.S. Suttkus",NA,NA,"PreservedSpecimen","",NA,"impact","2004-2013","impact_2004-2013",4
